{
"type": "FeatureCollection",
"crs": { "type": "name", "properties": { "name": "urn:ogc:def:crs:OGC:1.3:CRS84" } },
"features": [
{ "type": "Feature", "properties": { "entity_id": 307, "p_entity": 40, "name": "Mwatate Sub County" }, "geometry": { "type": "Polygon", "coordinates": [ [ [ 38.4126, -3.3259 ], [ 38.41246, -3.32609 ], [ 38.41285, -3.32708 ], [ 38.4136, -3.32906 ], [ 38.41528, -3.33209 ], [ 38.41732, -3.33601 ], [ 38.41801, -3.33677 ], [ 38.42029, -3.33933 ], [ 38.42557, -3.34356 ], [ 38.4258, -3.34375 ], [ 38.42629, -3.34399 ], [ 38.43106, -3.34642 ], [ 38.43711, -3.34975 ], [ 38.43938, -3.35148 ], [ 38.43964, -3.35168 ], [ 38.44173, -3.35416 ], [ 38.44366, -3.35654 ], [ 38.44555, -3.35927 ], [ 38.44549, -3.35965 ], [ 38.4454, -3.36026 ], [ 38.44509, -3.36137 ], [ 38.4449, -3.36205 ], [ 38.4454, -3.36374 ], [ 38.44525, -3.36487 ], [ 38.4451, -3.36597 ], [ 38.44565, -3.36681 ], [ 38.44581, -3.36683 ], [ 38.44783, -3.36711 ], [ 38.45066, -3.36805 ], [ 38.452, -3.36924 ], [ 38.45344, -3.37118 ], [ 38.45323, -3.37156 ], [ 38.45446, -3.37174 ], [ 38.45687, -3.3746 ], [ 38.45807, -3.3758 ], [ 38.46033, -3.37538 ], [ 38.46048, -3.37535 ], [ 38.46454, -3.37339 ], [ 38.46491, -3.37367 ], [ 38.46755, -3.37565 ], [ 38.46951, -3.3758 ], [ 38.46981, -3.38769 ], [ 38.4706, -3.38812 ], [ 38.47472, -3.39038 ], [ 38.4812, -3.39394 ], [ 38.50051, -3.40454 ], [ 38.5008, -3.40486 ], [ 38.50217, -3.40635 ], [ 38.50548, -3.41568 ], [ 38.51135, -3.43223 ], [ 38.51188, -3.43303 ], [ 38.5111, -3.4335 ], [ 38.52095, -3.43654 ], [ 38.53673, -3.4406 ], [ 38.54064, -3.44233 ], [ 38.54052, -3.44248 ], [ 38.53876, -3.44451 ], [ 38.53673, -3.44653 ], [ 38.53384, -3.44581 ], [ 38.5321, -3.44537 ], [ 38.52949, -3.44494 ], [ 38.52688, -3.44885 ], [ 38.52804, -3.4503 ], [ 38.52761, -3.4516 ], [ 38.52529, -3.45117 ], [ 38.52384, -3.4516 ], [ 38.5221, -3.45117 ], [ 38.52124, -3.45305 ], [ 38.51863, -3.45276 ], [ 38.51732, -3.45305 ], [ 38.51602, -3.45233 ], [ 38.51457, -3.45088 ], [ 38.51124, -3.4516 ], [ 38.5095, -3.44928 ], [ 38.50942, -3.44946 ], [ 38.50704, -3.45437 ], [ 38.50501, -3.45855 ], [ 38.50299, -3.46811 ], [ 38.49994, -3.47535 ], [ 38.49527, -3.48292 ], [ 38.4927, -3.48708 ], [ 38.49141, -3.48932 ], [ 38.48995, -3.49186 ], [ 38.49415, -3.50214 ], [ 38.49474, -3.50328 ], [ 38.50299, -3.51923 ], [ 38.5059, -3.52493 ], [ 38.50617, -3.52546 ], [ 38.50704, -3.52836 ], [ 38.50994, -3.53893 ], [ 38.51428, -3.55327 ], [ 38.51776, -3.56529 ], [ 38.52008, -3.57484 ], [ 38.52355, -3.5857 ], [ 38.52645, -3.59454 ], [ 38.52949, -3.60555 ], [ 38.53413, -3.62336 ], [ 38.53818, -3.63581 ], [ 38.53891, -3.63987 ], [ 38.5389, -3.64004 ], [ 38.53866, -3.63986 ], [ 38.51326, -3.65672 ], [ 38.5088, -3.65968 ], [ 38.48485, -3.6741 ], [ 38.44597, -3.70088 ], [ 38.43387, -3.70937 ], [ 38.43392, -3.7097 ], [ 38.4349, -3.71632 ], [ 38.43539, -3.71738 ], [ 38.43799, -3.72302 ], [ 38.44314, -3.72765 ], [ 38.44494, -3.73177 ], [ 38.44522, -3.73189 ], [ 38.45035, -3.73409 ], [ 38.45036, -3.73411 ], [ 38.45138, -3.73692 ], [ 38.45374, -3.74023 ], [ 38.45577, -3.74225 ], [ 38.45624, -3.74323 ], [ 38.45736, -3.74559 ], [ 38.46026, -3.74732 ], [ 38.46171, -3.74921 ], [ 38.46189, -3.74921 ], [ 38.46388, -3.74921 ], [ 38.46562, -3.74834 ], [ 38.46779, -3.74921 ], [ 38.46781, -3.74924 ], [ 38.46808, -3.74935 ], [ 38.46895, -3.75094 ], [ 38.4688, -3.75427 ], [ 38.4688, -3.75732 ], [ 38.46953, -3.76094 ], [ 38.46967, -3.76485 ], [ 38.46967, -3.76774 ], [ 38.46965, -3.76782 ], [ 38.46866, -3.77136 ], [ 38.46953, -3.77339 ], [ 38.46982, -3.77469 ], [ 38.46982, -3.77687 ], [ 38.47286, -3.78005 ], [ 38.47836, -3.7844 ], [ 38.48184, -3.78845 ], [ 38.48387, -3.78947 ], [ 38.48387, -3.79294 ], [ 38.48343, -3.79844 ], [ 38.48155, -3.80554 ], [ 38.4822, -3.80773 ], [ 38.48271, -3.80945 ], [ 38.48292, -3.81046 ], [ 38.48308, -3.81055 ], [ 38.4832, -3.8106 ], [ 38.48321, -3.8106 ], [ 38.48321, -3.81061 ], [ 38.50156, -3.81364 ], [ 38.5237, -3.86975 ], [ 38.54331, -3.91945 ], [ 38.54553, -3.92508 ], [ 38.55168, -3.94002 ], [ 38.53102, -3.98157 ], [ 38.51871, -4.00728 ], [ 38.49958, -4.04575 ], [ 38.49365, -4.05652 ], [ 38.48793, -4.06553 ], [ 38.48639, -4.06949 ], [ 38.47628, -4.0919 ], [ 38.45496, -4.13455 ], [ 38.45339, -4.13778 ], [ 38.44668, -4.14016 ], [ 38.40678, -4.11259 ], [ 38.38725, -4.09893 ], [ 38.35112, -4.07368 ], [ 38.3172, -4.04974 ], [ 38.24275, -3.99747 ], [ 38.21691, -3.97927 ], [ 38.2057, -3.97143 ], [ 38.23062, -3.90686 ], [ 38.24619, -3.81441 ], [ 38.25629, -3.77269 ], [ 38.25177, -3.77195 ], [ 38.22317, -3.76721 ], [ 38.13401, -3.75244 ], [ 38.1338, -3.64813 ], [ 38.13424, -3.60243 ], [ 38.13479, -3.54643 ], [ 38.13533, -3.49097 ], [ 38.13489, -3.4624 ], [ 38.13511, -3.43866 ], [ 38.13482, -3.43865 ], [ 38.12039, -3.43822 ], [ 38.12038, -3.43808 ], [ 38.12023, -3.41702 ], [ 38.12014, -3.40554 ], [ 38.11995, -3.37887 ], [ 38.13423, -3.37822 ], [ 38.13431, -3.34727 ], [ 38.13445, -3.28964 ], [ 38.13439, -3.27267 ], [ 38.14477, -3.27712 ], [ 38.17946, -3.28976 ], [ 38.24111, -3.31342 ], [ 38.2415, -3.31357 ], [ 38.23551, -3.34171 ], [ 38.23219, -3.35594 ], [ 38.22972, -3.36652 ], [ 38.2292, -3.36874 ], [ 38.22673, -3.37927 ], [ 38.22592, -3.38272 ], [ 38.22532, -3.38673 ], [ 38.22519, -3.38758 ], [ 38.22465, -3.38909 ], [ 38.22436, -3.3899 ], [ 38.22557, -3.39204 ], [ 38.22557, -3.3953 ], [ 38.2265, -3.39837 ], [ 38.22743, -3.40209 ], [ 38.22753, -3.40284 ], [ 38.22789, -3.40534 ], [ 38.22947, -3.40869 ], [ 38.23133, -3.41204 ], [ 38.23626, -3.41678 ], [ 38.23822, -3.41818 ], [ 38.24352, -3.41781 ], [ 38.24596, -3.41745 ], [ 38.24668, -3.41734 ], [ 38.25078, -3.41744 ], [ 38.25247, -3.41782 ], [ 38.25524, -3.41846 ], [ 38.25963, -3.41892 ], [ 38.26324, -3.4193 ], [ 38.2665, -3.4194 ], [ 38.26844, -3.41946 ], [ 38.26929, -3.41948 ], [ 38.27124, -3.41915 ], [ 38.27422, -3.41864 ], [ 38.27463, -3.41852 ], [ 38.27822, -3.41744 ], [ 38.28185, -3.41734 ], [ 38.28191, -3.41732 ], [ 38.28331, -3.41687 ], [ 38.28415, -3.4166 ], [ 38.28473, -3.41641 ], [ 38.28561, -3.41607 ], [ 38.28687, -3.41557 ], [ 38.28873, -3.41567 ], [ 38.28955, -3.41672 ], [ 38.29032, -3.41771 ], [ 38.29115, -3.41911 ], [ 38.29459, -3.42041 ], [ 38.29785, -3.42069 ], [ 38.30055, -3.42134 ], [ 38.30204, -3.42116 ], [ 38.30567, -3.42181 ], [ 38.30603, -3.42198 ], [ 38.308, -3.42292 ], [ 38.30902, -3.4234 ], [ 38.3092, -3.42348 ], [ 38.31171, -3.42395 ], [ 38.31367, -3.42581 ], [ 38.31424, -3.42615 ], [ 38.3158, -3.42709 ], [ 38.31599, -3.4272 ], [ 38.31627, -3.42943 ], [ 38.31543, -3.4312 ], [ 38.31515, -3.43316 ], [ 38.31553, -3.43397 ], [ 38.31562, -3.43418 ], [ 38.31748, -3.43477 ], [ 38.31767, -3.43483 ], [ 38.32027, -3.43492 ], [ 38.32033, -3.43492 ], [ 38.32077, -3.43492 ], [ 38.32157, -3.43492 ], [ 38.32232, -3.43232 ], [ 38.32306, -3.42943 ], [ 38.32306, -3.42743 ], [ 38.32306, -3.42739 ], [ 38.32281, -3.42654 ], [ 38.3225, -3.42553 ], [ 38.3226, -3.42339 ], [ 38.32278, -3.42134 ], [ 38.32706, -3.42078 ], [ 38.32771, -3.42069 ], [ 38.32892, -3.42144 ], [ 38.32957, -3.42255 ], [ 38.3305, -3.42274 ], [ 38.33097, -3.42376 ], [ 38.33124, -3.42386 ], [ 38.33171, -3.42404 ], [ 38.33218, -3.42283 ], [ 38.33339, -3.42088 ], [ 38.33342, -3.4208 ], [ 38.33398, -3.41952 ], [ 38.33432, -3.41874 ], [ 38.33302, -3.41716 ], [ 38.33478, -3.4152 ], [ 38.33574, -3.41443 ], [ 38.33639, -3.4139 ], [ 38.33674, -3.41362 ], [ 38.33877, -3.4154 ], [ 38.3412, -3.41753 ], [ 38.34184, -3.418 ], [ 38.34381, -3.41948 ], [ 38.3466, -3.42125 ], [ 38.34713, -3.42146 ], [ 38.34948, -3.42237 ], [ 38.34984, -3.42234 ], [ 38.35218, -3.42218 ], [ 38.35326, -3.42218 ], [ 38.35342, -3.42218 ], [ 38.35562, -3.42218 ], [ 38.35816, -3.4221 ], [ 38.35879, -3.42209 ], [ 38.36186, -3.42209 ], [ 38.36441, -3.42214 ], [ 38.36445, -3.42214 ], [ 38.36457, -3.42215 ], [ 38.3653, -3.42216 ], [ 38.36604, -3.42218 ], [ 38.36911, -3.42218 ], [ 38.36974, -3.42218 ], [ 38.37107, -3.42218 ], [ 38.37398, -3.42143 ], [ 38.37409, -3.42141 ], [ 38.37469, -3.42125 ], [ 38.37674, -3.42069 ], [ 38.37811, -3.42101 ], [ 38.37953, -3.42134 ], [ 38.38195, -3.42215 ], [ 38.3826, -3.42237 ], [ 38.38649, -3.42369 ], [ 38.38697, -3.42385 ], [ 38.3906, -3.42376 ], [ 38.39321, -3.42423 ], [ 38.39498, -3.42478 ], [ 38.39586, -3.42497 ], [ 38.39489, -3.42192 ], [ 38.39453, -3.42014 ], [ 38.39385, -3.41686 ], [ 38.39301, -3.41483 ], [ 38.39286, -3.412 ], [ 38.39235, -3.41035 ], [ 38.39187, -3.40878 ], [ 38.39167, -3.40803 ], [ 38.39102, -3.40823 ], [ 38.39073, -3.40798 ], [ 38.39073, -3.40714 ], [ 38.39069, -3.40684 ], [ 38.39063, -3.40635 ], [ 38.39213, -3.40596 ], [ 38.39217, -3.40595 ], [ 38.39218, -3.40595 ], [ 38.39757, -3.40501 ], [ 38.40447, -3.40397 ], [ 38.41176, -3.40367 ], [ 38.41499, -3.40312 ], [ 38.41479, -3.40059 ], [ 38.41509, -3.39747 ], [ 38.41523, -3.3932 ], [ 38.41504, -3.39256 ], [ 38.41506, -3.39255 ], [ 38.41479, -3.39232 ], [ 38.4146, -3.39027 ], [ 38.41284, -3.38813 ], [ 38.41215, -3.3874 ], [ 38.41163, -3.38683 ], [ 38.412, -3.38572 ], [ 38.41209, -3.38478 ], [ 38.40893, -3.38199 ], [ 38.40391, -3.37651 ], [ 38.40335, -3.37446 ], [ 38.40362, -3.37404 ], [ 38.40479, -3.37221 ], [ 38.40484, -3.37213 ], [ 38.40381, -3.36851 ], [ 38.40344, -3.36655 ], [ 38.40177, -3.36358 ], [ 38.40112, -3.35976 ], [ 38.4009, -3.3585 ], [ 38.40062, -3.35681 ], [ 38.40056, -3.35641 ], [ 38.40009, -3.35139 ], [ 38.40036, -3.34709 ], [ 38.40037, -3.34693 ], [ 38.40093, -3.34367 ], [ 38.40149, -3.34097 ], [ 38.40111, -3.34012 ], [ 38.40084, -3.33948 ], [ 38.40065, -3.33632 ], [ 38.40048, -3.33554 ], [ 38.39991, -3.33297 ], [ 38.40121, -3.3312 ], [ 38.40279, -3.33027 ], [ 38.40353, -3.32992 ], [ 38.40512, -3.32916 ], [ 38.40958, -3.3273 ], [ 38.41153, -3.32627 ], [ 38.4126, -3.3259 ] ] ] } },
{ "type": "Feature", "properties": { "entity_id": 308, "p_entity": 40, "name": "Taveta Sub County" }, "geometry": { "type": "Polygon", "coordinates": [ [ [ 38.13439, -3.27267 ], [ 38.13445, -3.28964 ], [ 38.13431, -3.34727 ], [ 38.13423, -3.37822 ], [ 38.11995, -3.37887 ], [ 38.12014, -3.40554 ], [ 38.12023, -3.41702 ], [ 38.12038, -3.43808 ], [ 38.12039, -3.43822 ], [ 38.13482, -3.43865 ], [ 38.13511, -3.43866 ], [ 38.13489, -3.4624 ], [ 38.13533, -3.49097 ], [ 38.13479, -3.54643 ], [ 38.13424, -3.60243 ], [ 38.1338, -3.64813 ], [ 38.13401, -3.75244 ], [ 38.22317, -3.76721 ], [ 38.25177, -3.77195 ], [ 38.25629, -3.77269 ], [ 38.24619, -3.81441 ], [ 38.23062, -3.90686 ], [ 38.2057, -3.97143 ], [ 38.09454, -3.89366 ], [ 37.99572, -3.82394 ], [ 37.91565, -3.76768 ], [ 37.86251, -3.73042 ], [ 37.78577, -3.6766 ], [ 37.77293, -3.64431 ], [ 37.76261, -3.61832 ], [ 37.76194, -3.61664 ], [ 37.75852, -3.60027 ], [ 37.75852, -3.60027 ], [ 37.75453, -3.58117 ], [ 37.7532, -3.57521 ], [ 37.75122, -3.56886 ], [ 37.75016, -3.56581 ], [ 37.74963, -3.5637 ], [ 37.7495, -3.55827 ], [ 37.74884, -3.5539 ], [ 37.74725, -3.54913 ], [ 37.74679, -3.5483 ], [ 37.74641, -3.54761 ], [ 37.74663, -3.54751 ], [ 37.74715, -3.54693 ], [ 37.74811, -3.54598 ], [ 37.7481, -3.54585 ], [ 37.74701, -3.54693 ], [ 37.74649, -3.54751 ], [ 37.74627, -3.54761 ], [ 37.7442, -3.54384 ], [ 37.72765, -3.5404 ], [ 37.7246, -3.53563 ], [ 37.72328, -3.53431 ], [ 37.72248, -3.53394 ], [ 37.72188, -3.53326 ], [ 37.72188, -3.53258 ], [ 37.72036, -3.5319 ], [ 37.71942, -3.53139 ], [ 37.71874, -3.53122 ], [ 37.71807, -3.53105 ], [ 37.7173, -3.53097 ], [ 37.71611, -3.53114 ], [ 37.71535, -3.53114 ], [ 37.71476, -3.53097 ], [ 37.71399, -3.53054 ], [ 37.71331, -3.5302 ], [ 37.71255, -3.5302 ], [ 37.71136, -3.53037 ], [ 37.7106, -3.53088 ], [ 37.7095, -3.53088 ], [ 37.70814, -3.53071 ], [ 37.70738, -3.53003 ], [ 37.7067, -3.52961 ], [ 37.7061, -3.52961 ], [ 37.70576, -3.52961 ], [ 37.70551, -3.52961 ], [ 37.705, -3.52936 ], [ 37.70432, -3.52969 ], [ 37.70373, -3.52969 ], [ 37.70339, -3.52944 ], [ 37.70305, -3.52953 ], [ 37.70262, -3.52953 ], [ 37.70211, -3.52927 ], [ 37.70169, -3.52927 ], [ 37.70152, -3.52953 ], [ 37.70152, -3.53012 ], [ 37.70118, -3.53037 ], [ 37.70059, -3.53012 ], [ 37.69965, -3.52961 ], [ 37.69889, -3.52953 ], [ 37.69813, -3.52944 ], [ 37.69745, -3.52893 ], [ 37.69685, -3.52893 ], [ 37.69626, -3.52902 ], [ 37.69558, -3.52876 ], [ 37.69507, -3.52783 ], [ 37.69473, -3.52749 ], [ 37.69431, -3.52698 ], [ 37.69397, -3.52698 ], [ 37.69354, -3.52698 ], [ 37.69323, -3.5271 ], [ 37.69291, -3.52669 ], [ 37.69278, -3.52616 ], [ 37.69244, -3.52591 ], [ 37.69215, -3.52556 ], [ 37.69196, -3.52525 ], [ 37.69162, -3.52499 ], [ 37.6913, -3.5248 ], [ 37.69108, -3.52458 ], [ 37.69096, -3.52439 ], [ 37.69067, -3.52389 ], [ 37.69045, -3.52342 ], [ 37.69017, -3.52295 ], [ 37.68989, -3.5226 ], [ 37.68963, -3.52222 ], [ 37.68935, -3.52191 ], [ 37.68913, -3.52175 ], [ 37.68881, -3.52165 ], [ 37.68831, -3.52156 ], [ 37.68815, -3.52115 ], [ 37.68796, -3.52055 ], [ 37.68771, -3.51957 ], [ 37.6873, -3.51904 ], [ 37.68711, -3.51876 ], [ 37.68752, -3.5186 ], [ 37.68755, -3.51838 ], [ 37.6874, -3.51809 ], [ 37.68708, -3.51784 ], [ 37.68604, -3.51724 ], [ 37.68566, -3.51693 ], [ 37.68563, -3.51691 ], [ 37.68516, -3.51664 ], [ 37.68491, -3.51627 ], [ 37.68497, -3.51592 ], [ 37.68478, -3.51564 ], [ 37.6845, -3.51545 ], [ 37.68431, -3.51497 ], [ 37.6839, -3.51466 ], [ 37.68355, -3.51422 ], [ 37.6835, -3.51417 ], [ 37.68336, -3.51403 ], [ 37.68245, -3.51378 ], [ 37.6822, -3.51403 ], [ 37.68218, -3.51417 ], [ 37.68216, -3.51438 ], [ 37.68212, -3.51451 ], [ 37.68204, -3.51475 ], [ 37.68185, -3.51485 ], [ 37.6815, -3.51488 ], [ 37.681, -3.51479 ], [ 37.68031, -3.51447 ], [ 37.67971, -3.51422 ], [ 37.67936, -3.51422 ], [ 37.67914, -3.51425 ], [ 37.67895, -3.51428 ], [ 37.6787, -3.51417 ], [ 37.67872, -3.51411 ], [ 37.67837, -3.5139 ], [ 37.67796, -3.51362 ], [ 37.67783, -3.51343 ], [ 37.67739, -3.51312 ], [ 37.67701, -3.51283 ], [ 37.6767, -3.51274 ], [ 37.67632, -3.51252 ], [ 37.67632, -3.5123 ], [ 37.67644, -3.51192 ], [ 37.67651, -3.51167 ], [ 37.67647, -3.51126 ], [ 37.67616, -3.51082 ], [ 37.67591, -3.51063 ], [ 37.67544, -3.51044 ], [ 37.67523, -3.51042 ], [ 37.67503, -3.51041 ], [ 37.67462, -3.51028 ], [ 37.67433, -3.51015 ], [ 37.6743, -3.50933 ], [ 37.67414, -3.50877 ], [ 37.67402, -3.50833 ], [ 37.67402, -3.50751 ], [ 37.67395, -3.50732 ], [ 37.67373, -3.50707 ], [ 37.67351, -3.50675 ], [ 37.6731, -3.50644 ], [ 37.67279, -3.50609 ], [ 37.67247, -3.50603 ], [ 37.67219, -3.50596 ], [ 37.67203, -3.5059 ], [ 37.67194, -3.5059 ], [ 37.6714, -3.50593 ], [ 37.67102, -3.50603 ], [ 37.67061, -3.50625 ], [ 37.67011, -3.50622 ], [ 37.66929, -3.50606 ], [ 37.66831, -3.50603 ], [ 37.66749, -3.50663 ], [ 37.6669, -3.50707 ], [ 37.66661, -3.5071 ], [ 37.66608, -3.50694 ], [ 37.66573, -3.50666 ], [ 37.66519, -3.50625 ], [ 37.66447, -3.50584 ], [ 37.66362, -3.50584 ], [ 37.66283, -3.50587 ], [ 37.66226, -3.50599 ], [ 37.66154, -3.50669 ], [ 37.66097, -3.50729 ], [ 37.66006, -3.50719 ], [ 37.65979, -3.50721 ], [ 37.65946, -3.50722 ], [ 37.65908, -3.50741 ], [ 37.65836, -3.50804 ], [ 37.65782, -3.50858 ], [ 37.65713, -3.50877 ], [ 37.65675, -3.50899 ], [ 37.65602, -3.50924 ], [ 37.65549, -3.50965 ], [ 37.65502, -3.51025 ], [ 37.65467, -3.51072 ], [ 37.65451, -3.51145 ], [ 37.6536, -3.51286 ], [ 37.65199, -3.51387 ], [ 37.65042, -3.51472 ], [ 37.64969, -3.51501 ], [ 37.64865, -3.51504 ], [ 37.64767, -3.51501 ], [ 37.646, -3.5162 ], [ 37.64474, -3.51715 ], [ 37.6438, -3.51794 ], [ 37.64339, -3.51872 ], [ 37.64288, -3.51935 ], [ 37.64235, -3.51998 ], [ 37.64131, -3.52002 ], [ 37.64036, -3.51989 ], [ 37.63958, -3.51989 ], [ 37.63873, -3.52017 ], [ 37.63828, -3.52014 ], [ 37.63759, -3.51989 ], [ 37.63665, -3.51976 ], [ 37.63573, -3.51983 ], [ 37.63485, -3.52033 ], [ 37.63422, -3.52083 ], [ 37.63353, -3.52052 ], [ 37.63324, -3.52058 ], [ 37.63268, -3.52115 ], [ 37.63135, -3.52106 ], [ 37.63091, -3.52109 ], [ 37.63056, -3.52156 ], [ 37.63028, -3.52222 ], [ 37.62946, -3.52288 ], [ 37.62899, -3.52342 ], [ 37.62811, -3.52367 ], [ 37.62732, -3.52411 ], [ 37.62634, -3.52424 ], [ 37.62527, -3.52436 ], [ 37.62448, -3.52417 ], [ 37.62373, -3.52405 ], [ 37.62281, -3.52424 ], [ 37.62184, -3.52452 ], [ 37.62061, -3.52433 ], [ 37.62017, -3.52455 ], [ 37.61998, -3.52493 ], [ 37.62007, -3.52562 ], [ 37.61966, -3.52619 ], [ 37.61872, -3.52638 ], [ 37.61777, -3.52654 ], [ 37.61686, -3.5271 ], [ 37.61588, -3.5266 ], [ 37.61497, -3.52619 ], [ 37.61415, -3.52613 ], [ 37.61336, -3.52638 ], [ 37.61273, -3.52657 ], [ 37.61235, -3.52644 ], [ 37.61166, -3.52594 ], [ 37.61109, -3.52578 ], [ 37.61049, -3.52578 ], [ 37.60974, -3.52588 ], [ 37.60911, -3.52584 ], [ 37.60876, -3.5255 ], [ 37.60838, -3.52471 ], [ 37.60778, -3.52443 ], [ 37.6075, -3.52443 ], [ 37.6069, -3.52449 ], [ 37.60646, -3.52455 ], [ 37.6057, -3.52462 ], [ 37.60495, -3.52452 ], [ 37.60422, -3.52414 ], [ 37.6041, -3.52376 ], [ 37.60387, -3.52279 ], [ 37.60321, -3.52219 ], [ 37.60258, -3.52159 ], [ 37.60157, -3.52121 ], [ 37.60079, -3.52077 ], [ 37.60057, -3.51983 ], [ 37.60091, -3.51876 ], [ 37.60123, -3.51803 ], [ 37.60142, -3.51718 ], [ 37.60164, -3.51636 ], [ 37.6022, -3.51538 ], [ 37.60249, -3.51482 ], [ 37.60277, -3.51387 ], [ 37.60328, -3.51305 ], [ 37.60394, -3.51245 ], [ 37.60463, -3.51198 ], [ 37.60488, -3.51151 ], [ 37.60488, -3.51091 ], [ 37.60463, -3.50981 ], [ 37.60447, -3.50918 ], [ 37.60406, -3.50833 ], [ 37.60372, -3.50751 ], [ 37.6035, -3.50656 ], [ 37.60447, -3.50653 ], [ 37.60507, -3.50593 ], [ 37.60586, -3.50521 ], [ 37.60668, -3.50486 ], [ 37.60728, -3.5042 ], [ 37.60825, -3.50401 ], [ 37.60882, -3.5036 ], [ 37.60898, -3.50335 ], [ 37.61052, -3.50297 ], [ 37.61421, -3.50253 ], [ 37.61881, -3.50184 ], [ 37.62117, -3.50099 ], [ 37.62193, -3.5002 ], [ 37.6224, -3.49913 ], [ 37.62262, -3.49834 ], [ 37.62225, -3.4972 ], [ 37.62215, -3.49616 ], [ 37.62225, -3.49569 ], [ 37.62269, -3.49512 ], [ 37.62332, -3.49472 ], [ 37.62407, -3.49459 ], [ 37.62483, -3.49525 ], [ 37.62536, -3.49569 ], [ 37.62606, -3.49512 ], [ 37.6264, -3.49453 ], [ 37.62713, -3.49415 ], [ 37.62744, -3.49336 ], [ 37.62738, -3.49242 ], [ 37.62707, -3.49188 ], [ 37.62703, -3.49153 ], [ 37.62763, -3.49128 ], [ 37.62817, -3.49084 ], [ 37.6282, -3.4903 ], [ 37.6282, -3.48983 ], [ 37.62848, -3.48926 ], [ 37.62858, -3.48848 ], [ 37.62899, -3.48788 ], [ 37.62962, -3.48753 ], [ 37.63, -3.48737 ], [ 37.63044, -3.48678 ], [ 37.6311, -3.48671 ], [ 37.63205, -3.48681 ], [ 37.63302, -3.48665 ], [ 37.63375, -3.48643 ], [ 37.63441, -3.48567 ], [ 37.63488, -3.48495 ], [ 37.63494, -3.484 ], [ 37.63494, -3.48277 ], [ 37.63485, -3.48148 ], [ 37.63501, -3.48063 ], [ 37.63466, -3.47991 ], [ 37.63425, -3.47915 ], [ 37.63416, -3.47901 ], [ 37.63375, -3.47839 ], [ 37.63375, -3.47764 ], [ 37.63405, -3.47665 ], [ 37.63434, -3.47645 ], [ 37.63415, -3.47556 ], [ 37.63405, -3.47458 ], [ 37.63434, -3.47349 ], [ 37.63375, -3.4726 ], [ 37.63375, -3.47132 ], [ 37.63405, -3.46944 ], [ 37.63375, -3.46747 ], [ 37.63346, -3.46638 ], [ 37.63346, -3.46549 ], [ 37.63247, -3.4652 ], [ 37.63099, -3.4646 ], [ 37.63069, -3.46421 ], [ 37.6299, -3.46401 ], [ 37.62911, -3.46352 ], [ 37.62862, -3.46253 ], [ 37.62842, -3.46164 ], [ 37.62842, -3.46046 ], [ 37.62792, -3.45976 ], [ 37.62767, -3.45955 ], [ 37.62723, -3.45917 ], [ 37.62595, -3.45967 ], [ 37.62467, -3.46046 ], [ 37.62368, -3.46085 ], [ 37.6221, -3.46085 ], [ 37.62091, -3.46046 ], [ 37.61993, -3.46065 ], [ 37.61923, -3.46125 ], [ 37.61825, -3.46125 ], [ 37.61716, -3.46006 ], [ 37.61647, -3.45967 ], [ 37.61558, -3.45907 ], [ 37.61449, -3.45868 ], [ 37.61341, -3.45848 ], [ 37.61242, -3.45848 ], [ 37.61133, -3.45848 ], [ 37.61074, -3.45848 ], [ 37.61035, -3.45789 ], [ 37.60956, -3.45759 ], [ 37.60827, -3.457 ], [ 37.60768, -3.4567 ], [ 37.60541, -3.45828 ], [ 37.60442, -3.45897 ], [ 37.60314, -3.45897 ], [ 37.60264, -3.45897 ], [ 37.60185, -3.45957 ], [ 37.60106, -3.45967 ], [ 37.60017, -3.45947 ], [ 37.59938, -3.45907 ], [ 37.59869, -3.46006 ], [ 37.5982, -3.46006 ], [ 37.59761, -3.45986 ], [ 37.59682, -3.46026 ], [ 37.59603, -3.46036 ], [ 37.59642, -3.45219 ], [ 37.59711, -3.43794 ], [ 37.5975, -3.43749 ], [ 37.59889, -3.43587 ], [ 37.60008, -3.43429 ], [ 37.60153, -3.43254 ], [ 37.61716, -3.41375 ], [ 37.62133, -3.40887 ], [ 37.62812, -3.40091 ], [ 37.62829, -3.40073 ], [ 37.64234, -3.386 ], [ 37.64896, -3.37899 ], [ 37.64913, -3.37881 ], [ 37.65479, -3.37297 ], [ 37.66595, -3.36122 ], [ 37.66723, -3.35991 ], [ 37.67029, -3.35677 ], [ 37.67938, -3.35569 ], [ 37.6857, -3.3549 ], [ 37.68767, -3.35227 ], [ 37.68984, -3.34937 ], [ 37.68985, -3.34919 ], [ 37.68985, -3.34919 ], [ 37.69024, -3.33189 ], [ 37.69047, -3.32375 ], [ 37.69046, -3.32375 ], [ 37.69046, -3.32375 ], [ 37.69053, -3.32123 ], [ 37.69345, -3.32017 ], [ 37.70274, -3.3161 ], [ 37.70274, -3.3161 ], [ 37.70274, -3.3161 ], [ 37.70274, -3.3161 ], [ 37.71471, -3.31115 ], [ 37.71542, -3.31066 ], [ 37.71293, -3.2939 ], [ 37.71147, -3.2841 ], [ 37.71015, -3.27432 ], [ 37.70941, -3.26891 ], [ 37.70868, -3.26353 ], [ 37.70832, -3.26084 ], [ 37.70586, -3.24268 ], [ 37.70556, -3.24052 ], [ 37.70545, -3.23966 ], [ 37.70363, -3.22748 ], [ 37.70201, -3.21669 ], [ 37.7013, -3.21192 ], [ 37.6994, -3.19924 ], [ 37.69939, -3.19919 ], [ 37.69824, -3.19147 ], [ 37.69814, -3.19084 ], [ 37.69701, -3.18373 ], [ 37.6965, -3.18058 ], [ 37.7072, -3.17975 ], [ 37.72066, -3.17871 ], [ 37.72741, -3.17819 ], [ 37.73173, -3.17786 ], [ 37.73306, -3.17776 ], [ 37.73944, -3.17727 ], [ 37.7448, -3.17685 ], [ 37.75416, -3.17613 ], [ 37.77061, -3.17487 ], [ 37.77069, -3.17486 ], [ 37.77392, -3.17461 ], [ 37.77397, -3.17461 ], [ 37.77636, -3.17446 ], [ 37.78036, -3.17413 ], [ 37.78225, -3.17397 ], [ 37.79116, -3.17328 ], [ 37.79177, -3.17368 ], [ 37.79214, -3.17392 ], [ 37.79225, -3.174 ], [ 37.7923, -3.17396 ], [ 37.79296, -3.17497 ], [ 37.79316, -3.17518 ], [ 37.79329, -3.17547 ], [ 37.79333, -3.17556 ], [ 37.7935, -3.17554 ], [ 37.79399, -3.17605 ], [ 37.79457, -3.17608 ], [ 37.79486, -3.17608 ], [ 37.79503, -3.1761 ], [ 37.79534, -3.17601 ], [ 37.79601, -3.17553 ], [ 37.79647, -3.17512 ], [ 37.79684, -3.1746 ], [ 37.79684, -3.17416 ], [ 37.7971, -3.17373 ], [ 37.7973, -3.17342 ], [ 37.79776, -3.17316 ], [ 37.79797, -3.17299 ], [ 37.7983, -3.17299 ], [ 37.79878, -3.17303 ], [ 37.79904, -3.17301 ], [ 37.79935, -3.17244 ], [ 37.79959, -3.17181 ], [ 37.7997, -3.1715 ], [ 37.79998, -3.17135 ], [ 37.80039, -3.17137 ], [ 37.80061, -3.17155 ], [ 37.80078, -3.17172 ], [ 37.80096, -3.17181 ], [ 37.80109, -3.17181 ], [ 37.80129, -3.17168 ], [ 37.8012, -3.17144 ], [ 37.80085, -3.17124 ], [ 37.80085, -3.17092 ], [ 37.80109, -3.17085 ], [ 37.80144, -3.17092 ], [ 37.80192, -3.17129 ], [ 37.80231, -3.17148 ], [ 37.80266, -3.1715 ], [ 37.80296, -3.17146 ], [ 37.80344, -3.17129 ], [ 37.80377, -3.17094 ], [ 37.80386, -3.17035 ], [ 37.8041, -3.16998 ], [ 37.80438, -3.16972 ], [ 37.80475, -3.16963 ], [ 37.80501, -3.16961 ], [ 37.80532, -3.16974 ], [ 37.80553, -3.16989 ], [ 37.80569, -3.17007 ], [ 37.80584, -3.17035 ], [ 37.80595, -3.17057 ], [ 37.80625, -3.17076 ], [ 37.80649, -3.17083 ], [ 37.80667, -3.17081 ], [ 37.80697, -3.17081 ], [ 37.80721, -3.17083 ], [ 37.80737, -3.17098 ], [ 37.80752, -3.17111 ], [ 37.80774, -3.17116 ], [ 37.80793, -3.17118 ], [ 37.80811, -3.17126 ], [ 37.80837, -3.17144 ], [ 37.80874, -3.17135 ], [ 37.80872, -3.17109 ], [ 37.80869, -3.17081 ], [ 37.80874, -3.17063 ], [ 37.80909, -3.17061 ], [ 37.80939, -3.17078 ], [ 37.80972, -3.17083 ], [ 37.81, -3.17083 ], [ 37.81031, -3.17055 ], [ 37.81052, -3.17033 ], [ 37.81076, -3.17022 ], [ 37.81098, -3.17024 ], [ 37.81116, -3.17041 ], [ 37.81127, -3.17055 ], [ 37.81172, -3.17081 ], [ 37.81183, -3.17076 ], [ 37.81198, -3.17065 ], [ 37.81229, -3.17074 ], [ 37.81255, -3.17089 ], [ 37.8151, -3.17253 ], [ 37.81551, -3.17257 ], [ 37.81573, -3.1724 ], [ 37.81595, -3.17238 ], [ 37.81628, -3.1724 ], [ 37.81647, -3.17257 ], [ 37.81652, -3.17281 ], [ 37.81665, -3.17316 ], [ 37.81665, -3.17368 ], [ 37.81673, -3.17407 ], [ 37.81726, -3.17453 ], [ 37.81767, -3.17495 ], [ 37.81841, -3.17547 ], [ 37.8188, -3.17569 ], [ 37.81915, -3.17586 ], [ 37.81944, -3.17617 ], [ 37.81953, -3.1766 ], [ 37.81955, -3.17684 ], [ 37.81976, -3.17708 ], [ 37.82007, -3.17717 ], [ 37.8204, -3.17717 ], [ 37.8209, -3.17717 ], [ 37.8217, -3.17719 ], [ 37.8221, -3.17719 ], [ 37.82255, -3.17726 ], [ 37.82286, -3.17734 ], [ 37.82349, -3.17784 ], [ 37.82388, -3.17802 ], [ 37.82428, -3.17828 ], [ 37.8248, -3.17872 ], [ 37.8251, -3.179 ], [ 37.82517, -3.17917 ], [ 37.82526, -3.17928 ], [ 37.8255, -3.17941 ], [ 37.82578, -3.17967 ], [ 37.82621, -3.18031 ], [ 37.82691, -3.18094 ], [ 37.82752, -3.18122 ], [ 37.82807, -3.18148 ], [ 37.8285, -3.18168 ], [ 37.8287, -3.18179 ], [ 37.82881, -3.18194 ], [ 37.82881, -3.18216 ], [ 37.82892, -3.18257 ], [ 37.8292, -3.18275 ], [ 37.83003, -3.18338 ], [ 37.83035, -3.1836 ], [ 37.83066, -3.18397 ], [ 37.83073, -3.18403 ], [ 37.83077, -3.18456 ], [ 37.83073, -3.18475 ], [ 37.83066, -3.18514 ], [ 37.83066, -3.18534 ], [ 37.83073, -3.18558 ], [ 37.8309, -3.18573 ], [ 37.83107, -3.18606 ], [ 37.83118, -3.18623 ], [ 37.83147, -3.18665 ], [ 37.83157, -3.18665 ], [ 37.83186, -3.18667 ], [ 37.83219, -3.18678 ], [ 37.83242, -3.18717 ], [ 37.83251, -3.1873 ], [ 37.83288, -3.18774 ], [ 37.83319, -3.18806 ], [ 37.83332, -3.1885 ], [ 37.83332, -3.18867 ], [ 37.83349, -3.189 ], [ 37.83378, -3.18917 ], [ 37.83419, -3.18917 ], [ 37.83454, -3.18915 ], [ 37.83513, -3.18913 ], [ 37.83574, -3.18915 ], [ 37.8368, -3.18917 ], [ 37.83731, -3.18906 ], [ 37.83774, -3.189 ], [ 37.83809, -3.189 ], [ 37.83837, -3.18915 ], [ 37.83857, -3.1893 ], [ 37.8387, -3.18937 ], [ 37.83896, -3.18937 ], [ 37.8392, -3.18933 ], [ 37.83935, -3.18915 ], [ 37.83957, -3.18904 ], [ 37.83977, -3.18904 ], [ 37.84009, -3.18913 ], [ 37.8402, -3.18906 ], [ 37.84038, -3.18893 ], [ 37.84084, -3.18828 ], [ 37.84099, -3.18811 ], [ 37.84121, -3.18787 ], [ 37.84132, -3.18771 ], [ 37.84145, -3.18756 ], [ 37.84171, -3.18752 ], [ 37.84195, -3.18765 ], [ 37.84223, -3.18771 ], [ 37.84262, -3.18776 ], [ 37.84282, -3.18756 ], [ 37.84288, -3.18732 ], [ 37.84312, -3.18706 ], [ 37.84325, -3.18697 ], [ 37.84356, -3.18697 ], [ 37.84439, -3.18697 ], [ 37.84467, -3.1868 ], [ 37.84495, -3.18671 ], [ 37.8453, -3.18649 ], [ 37.84552, -3.18641 ], [ 37.84583, -3.18632 ], [ 37.84641, -3.18632 ], [ 37.84735, -3.18621 ], [ 37.84774, -3.18623 ], [ 37.84814, -3.18623 ], [ 37.84848, -3.18623 ], [ 37.84896, -3.18608 ], [ 37.84933, -3.18593 ], [ 37.84953, -3.18586 ], [ 37.84973, -3.18569 ], [ 37.84988, -3.18547 ], [ 37.84988, -3.1853 ], [ 37.84983, -3.18492 ], [ 37.84964, -3.18462 ], [ 37.84949, -3.18442 ], [ 37.84943, -3.18437 ], [ 37.84947, -3.18423 ], [ 37.84938, -3.1841 ], [ 37.8493, -3.18399 ], [ 37.84933, -3.18381 ], [ 37.84955, -3.18347 ], [ 37.84997, -3.18316 ], [ 37.85031, -3.18303 ], [ 37.85119, -3.18264 ], [ 37.85158, -3.18262 ], [ 37.85186, -3.18235 ], [ 37.85221, -3.18211 ], [ 37.85247, -3.18198 ], [ 37.85269, -3.18198 ], [ 37.85286, -3.18209 ], [ 37.85308, -3.18225 ], [ 37.85332, -3.18225 ], [ 37.85347, -3.18225 ], [ 37.85369, -3.18225 ], [ 37.85389, -3.18222 ], [ 37.85417, -3.18198 ], [ 37.85419, -3.18168 ], [ 37.85421, -3.18122 ], [ 37.85424, -3.18083 ], [ 37.85402, -3.18033 ], [ 37.85384, -3.18002 ], [ 37.85358, -3.17963 ], [ 37.85334, -3.17941 ], [ 37.85308, -3.17933 ], [ 37.85299, -3.17913 ], [ 37.85299, -3.17891 ], [ 37.85284, -3.17861 ], [ 37.8535, -3.17588 ], [ 37.85354, -3.17562 ], [ 37.85354, -3.17536 ], [ 37.85354, -3.1751 ], [ 37.85363, -3.17488 ], [ 37.85384, -3.17453 ], [ 37.85384, -3.17436 ], [ 37.85384, -3.17414 ], [ 37.85363, -3.17383 ], [ 37.85363, -3.17362 ], [ 37.85371, -3.1734 ], [ 37.85389, -3.17323 ], [ 37.85402, -3.17309 ], [ 37.85437, -3.17283 ], [ 37.8545, -3.17266 ], [ 37.8545, -3.17231 ], [ 37.85445, -3.17201 ], [ 37.85445, -3.17174 ], [ 37.85432, -3.17153 ], [ 37.8545, -3.17065 ], [ 37.85451, -3.17003 ], [ 37.85454, -3.16996 ], [ 37.85454, -3.16542 ], [ 37.85458, -3.15594 ], [ 37.85458, -3.15586 ], [ 37.99545, -3.16273 ], [ 38.04614, -3.1652 ], [ 38.13349, -3.16946 ], [ 38.13402, -3.1698 ], [ 38.13439, -3.27267 ] ] ] } },
{ "type": "Feature", "properties": { "entity_id": 309, "p_entity": 40, "name": "Voi Sub County" }, "geometry": { "type": "Polygon", "coordinates": [ [ [ 39.06471, -3.04389 ], [ 39.06621, -3.04415 ], [ 39.06881, -3.04347 ], [ 39.0717, -3.04296 ], [ 39.0726, -3.04291 ], [ 39.07396, -3.04302 ], [ 39.07543, -3.04324 ], [ 39.07642, -3.0435 ], [ 39.07809, -3.04392 ], [ 39.07899, -3.04426 ], [ 39.08012, -3.04511 ], [ 39.08063, -3.04652 ], [ 39.08086, -3.0485 ], [ 39.08091, -3.049 ], [ 39.08108, -3.05076 ], [ 39.08125, -3.05223 ], [ 39.08148, -3.05337 ], [ 39.08238, -3.05433 ], [ 39.08397, -3.05529 ], [ 39.08544, -3.05574 ], [ 39.08719, -3.05571 ], [ 39.08842, -3.05528 ], [ 39.08912, -3.05431 ], [ 39.08964, -3.05283 ], [ 39.08982, -3.05117 ], [ 39.08938, -3.04994 ], [ 39.0892, -3.04846 ], [ 39.08912, -3.04732 ], [ 39.08964, -3.04645 ], [ 39.09043, -3.04523 ], [ 39.09183, -3.04479 ], [ 39.09392, -3.04391 ], [ 39.09637, -3.04295 ], [ 39.09882, -3.0419 ], [ 39.10065, -3.04121 ], [ 39.10363, -3.04016 ], [ 39.10529, -3.03876 ], [ 39.10686, -3.03745 ], [ 39.10808, -3.0357 ], [ 39.10939, -3.03273 ], [ 39.11149, -3.02941 ], [ 39.11263, -3.02801 ], [ 39.11394, -3.02705 ], [ 39.11551, -3.02635 ], [ 39.11665, -3.02582 ], [ 39.11875, -3.02513 ], [ 39.1218, -3.02416 ], [ 39.12408, -3.02285 ], [ 39.12591, -3.02242 ], [ 39.12801, -3.02224 ], [ 39.12976, -3.02224 ], [ 39.13072, -3.02277 ], [ 39.13116, -3.02347 ], [ 39.13142, -3.02478 ], [ 39.13151, -3.02661 ], [ 39.13221, -3.0322 ], [ 39.13273, -3.03378 ], [ 39.13343, -3.035 ], [ 39.1343, -3.0371 ], [ 39.13465, -3.0385 ], [ 39.13474, -3.03911 ], [ 39.1343, -3.04077 ], [ 39.13413, -3.04234 ], [ 39.1343, -3.04348 ], [ 39.13474, -3.04444 ], [ 39.13504, -3.0446 ], [ 39.13553, -3.04488 ], [ 39.13649, -3.04514 ], [ 39.13762, -3.04488 ], [ 39.13963, -3.04444 ], [ 39.14112, -3.04409 ], [ 39.14164, -3.04409 ], [ 39.14226, -3.04453 ], [ 39.14252, -3.04505 ], [ 39.14278, -3.04584 ], [ 39.14296, -3.04724 ], [ 39.14296, -3.04916 ], [ 39.14322, -3.05047 ], [ 39.144, -3.05126 ], [ 39.14488, -3.05126 ], [ 39.14601, -3.05117 ], [ 39.14706, -3.05029 ], [ 39.14872, -3.04863 ], [ 39.14986, -3.04776 ], [ 39.15056, -3.04724 ], [ 39.1517, -3.04715 ], [ 39.15266, -3.04732 ], [ 39.15327, -3.04793 ], [ 39.15432, -3.04898 ], [ 39.15502, -3.05003 ], [ 39.15642, -3.05204 ], [ 39.15711, -3.05344 ], [ 39.15808, -3.05528 ], [ 39.15886, -3.0565 ], [ 39.1607, -3.05842 ], [ 39.16073, -3.05845 ], [ 39.16288, -3.06078 ], [ 39.16367, -3.06166 ], [ 39.16419, -3.06253 ], [ 39.16446, -3.06367 ], [ 39.16446, -3.0648 ], [ 39.16446, -3.06655 ], [ 39.16454, -3.0676 ], [ 39.16507, -3.06847 ], [ 39.16594, -3.06891 ], [ 39.16725, -3.06917 ], [ 39.16874, -3.069 ], [ 39.1704, -3.06821 ], [ 39.17171, -3.06681 ], [ 39.17293, -3.06515 ], [ 39.17355, -3.06349 ], [ 39.17424, -3.06131 ], [ 39.17521, -3.05999 ], [ 39.1766, -3.05965 ], [ 39.17888, -3.05973 ], [ 39.18001, -3.06043 ], [ 39.18071, -3.06113 ], [ 39.18115, -3.06235 ], [ 39.18185, -3.06393 ], [ 39.18246, -3.0648 ], [ 39.1836, -3.06559 ], [ 39.18491, -3.06594 ], [ 39.18666, -3.06594 ], [ 39.18849, -3.06567 ], [ 39.19024, -3.0655 ], [ 39.19216, -3.0648 ], [ 39.19548, -3.06393 ], [ 39.19627, -3.06366 ], [ 39.19732, -3.06366 ], [ 39.19898, -3.06366 ], [ 39.20055, -3.06445 ], [ 39.20178, -3.06576 ], [ 39.20317, -3.06707 ], [ 39.20501, -3.06795 ], [ 39.20641, -3.06856 ], [ 39.20833, -3.06865 ], [ 39.20982, -3.06795 ], [ 39.212, -3.0676 ], [ 39.21375, -3.0676 ], [ 39.21524, -3.0676 ], [ 39.21751, -3.06786 ], [ 39.21926, -3.06812 ], [ 39.2203, -3.06865 ], [ 39.22035, -3.069 ], [ 39.22039, -3.06935 ], [ 39.22031, -3.07011 ], [ 39.22022, -3.07092 ], [ 39.21943, -3.07197 ], [ 39.21942, -3.07221 ], [ 39.21934, -3.07337 ], [ 39.21903, -3.07466 ], [ 39.2187, -3.07591 ], [ 39.21838, -3.07712 ], [ 39.21838, -3.07712 ], [ 39.21827, -3.07752 ], [ 39.21603, -3.08594 ], [ 39.2126, -3.09626 ], [ 39.20576, -3.12226 ], [ 39.20389, -3.12939 ], [ 39.20039, -3.14277 ], [ 39.19296, -3.17049 ], [ 39.19295, -3.17053 ], [ 39.18995, -3.18225 ], [ 39.18739, -3.19153 ], [ 39.18098, -3.21673 ], [ 39.17616, -3.23455 ], [ 39.17299, -3.24713 ], [ 39.17079, -3.25506 ], [ 39.17049, -3.25621 ], [ 39.16157, -3.29003 ], [ 39.15834, -3.30352 ], [ 39.15358, -3.32103 ], [ 39.1541, -3.32101 ], [ 39.15402, -3.32134 ], [ 39.15394, -3.32134 ], [ 39.14083, -3.37016 ], [ 39.10047, -3.5204 ], [ 39.08699, -3.57058 ], [ 39.08699, -3.57058 ], [ 39.08697, -3.57064 ], [ 39.07238, -3.62768 ], [ 39.07213, -3.62864 ], [ 39.06664, -3.64913 ], [ 39.06539, -3.65388 ], [ 39.06318, -3.66232 ], [ 39.06226, -3.66577 ], [ 39.06046, -3.67251 ], [ 39.06008, -3.67395 ], [ 39.05846, -3.68003 ], [ 39.0566, -3.68734 ], [ 39.05643, -3.68724 ], [ 39.05627, -3.68781 ], [ 39.01853, -3.66523 ], [ 39.00546, -3.65742 ], [ 38.99038, -3.64829 ], [ 38.98243, -3.6437 ], [ 38.97706, -3.64057 ], [ 38.97671, -3.64037 ], [ 38.97031, -3.63661 ], [ 38.97002, -3.6371 ], [ 38.94859, -3.67281 ], [ 38.94589, -3.67731 ], [ 38.93959, -3.68781 ], [ 38.93351, -3.69794 ], [ 39.01228, -3.74553 ], [ 39.02115, -3.75088 ], [ 39.03292, -3.758 ], [ 39.03292, -3.758 ], [ 39.03309, -3.7581 ], [ 39.03262, -3.75905 ], [ 39.0313, -3.76171 ], [ 39.03068, -3.76314 ], [ 39.02881, -3.76742 ], [ 39.02352, -3.78008 ], [ 39.0188, -3.79137 ], [ 38.99936, -3.83925 ], [ 38.99533, -3.84918 ], [ 38.98159, -3.8816 ], [ 38.97765, -3.89128 ], [ 38.97752, -3.89124 ], [ 38.97734, -3.89175 ], [ 38.97727, -3.89191 ], [ 38.97522, -3.89664 ], [ 38.95165, -3.95224 ], [ 38.94717, -3.96282 ], [ 38.94607, -3.96315 ], [ 38.92895, -3.96837 ], [ 38.92837, -3.96855 ], [ 38.8816, -3.98569 ], [ 38.87668, -3.98749 ], [ 38.86376, -3.99116 ], [ 38.8432, -3.99865 ], [ 38.83635, -4.00109 ], [ 38.8363, -4.00097 ], [ 38.83217, -4.00253 ], [ 38.83154, -4.0028 ], [ 38.82456, -4.00571 ], [ 38.78233, -4.0207 ], [ 38.76637, -4.02636 ], [ 38.75103, -4.03191 ], [ 38.75103, -4.03202 ], [ 38.74654, -4.03362 ], [ 38.73615, -4.0377 ], [ 38.72266, -4.04245 ], [ 38.68813, -4.05459 ], [ 38.68057, -4.05732 ], [ 38.67918, -4.05782 ], [ 38.6073, -4.08323 ], [ 38.60736, -4.08307 ], [ 38.58463, -4.09115 ], [ 38.58208, -4.09205 ], [ 38.56827, -4.09696 ], [ 38.55168, -4.10278 ], [ 38.54173, -4.10627 ], [ 38.47142, -4.13137 ], [ 38.45339, -4.13778 ], [ 38.45496, -4.13455 ], [ 38.47628, -4.0919 ], [ 38.48639, -4.06949 ], [ 38.48793, -4.06553 ], [ 38.49365, -4.05652 ], [ 38.49958, -4.04575 ], [ 38.51871, -4.00728 ], [ 38.53102, -3.98157 ], [ 38.55168, -3.94002 ], [ 38.54553, -3.92508 ], [ 38.54331, -3.91945 ], [ 38.5237, -3.86975 ], [ 38.50156, -3.81364 ], [ 38.48321, -3.81061 ], [ 38.48321, -3.8106 ], [ 38.4832, -3.8106 ], [ 38.48308, -3.81055 ], [ 38.48292, -3.81046 ], [ 38.48271, -3.80945 ], [ 38.4822, -3.80773 ], [ 38.48155, -3.80554 ], [ 38.48343, -3.79844 ], [ 38.48387, -3.79294 ], [ 38.48387, -3.78947 ], [ 38.48184, -3.78845 ], [ 38.47836, -3.7844 ], [ 38.47286, -3.78005 ], [ 38.46982, -3.77687 ], [ 38.46982, -3.77469 ], [ 38.46953, -3.77339 ], [ 38.46866, -3.77136 ], [ 38.46965, -3.76782 ], [ 38.46967, -3.76774 ], [ 38.46967, -3.76485 ], [ 38.46953, -3.76094 ], [ 38.4688, -3.75732 ], [ 38.4688, -3.75427 ], [ 38.46895, -3.75094 ], [ 38.46808, -3.74935 ], [ 38.46781, -3.74924 ], [ 38.46779, -3.74921 ], [ 38.46562, -3.74834 ], [ 38.46388, -3.74921 ], [ 38.46189, -3.74921 ], [ 38.46171, -3.74921 ], [ 38.46026, -3.74732 ], [ 38.45736, -3.74559 ], [ 38.45624, -3.74323 ], [ 38.45577, -3.74225 ], [ 38.45374, -3.74023 ], [ 38.45138, -3.73692 ], [ 38.45036, -3.73411 ], [ 38.45035, -3.73409 ], [ 38.44522, -3.73189 ], [ 38.44494, -3.73177 ], [ 38.44314, -3.72765 ], [ 38.43799, -3.72302 ], [ 38.43539, -3.71738 ], [ 38.4349, -3.71632 ], [ 38.43392, -3.7097 ], [ 38.43387, -3.70937 ], [ 38.44597, -3.70088 ], [ 38.48485, -3.6741 ], [ 38.5088, -3.65968 ], [ 38.51326, -3.65672 ], [ 38.53866, -3.63986 ], [ 38.5389, -3.64004 ], [ 38.53891, -3.63987 ], [ 38.53818, -3.63581 ], [ 38.53413, -3.62336 ], [ 38.52949, -3.60555 ], [ 38.52645, -3.59454 ], [ 38.52355, -3.5857 ], [ 38.52008, -3.57484 ], [ 38.51776, -3.56529 ], [ 38.51428, -3.55327 ], [ 38.50994, -3.53893 ], [ 38.50704, -3.52836 ], [ 38.50617, -3.52546 ], [ 38.5059, -3.52493 ], [ 38.50299, -3.51923 ], [ 38.49474, -3.50328 ], [ 38.49415, -3.50214 ], [ 38.48995, -3.49186 ], [ 38.49141, -3.48932 ], [ 38.4927, -3.48708 ], [ 38.49527, -3.48292 ], [ 38.49994, -3.47535 ], [ 38.50299, -3.46811 ], [ 38.50501, -3.45855 ], [ 38.50704, -3.45437 ], [ 38.50942, -3.44946 ], [ 38.5095, -3.44928 ], [ 38.51124, -3.4516 ], [ 38.51457, -3.45088 ], [ 38.51602, -3.45233 ], [ 38.51732, -3.45305 ], [ 38.51863, -3.45276 ], [ 38.52124, -3.45305 ], [ 38.5221, -3.45117 ], [ 38.52384, -3.4516 ], [ 38.52529, -3.45117 ], [ 38.52761, -3.4516 ], [ 38.52804, -3.4503 ], [ 38.52688, -3.44885 ], [ 38.52949, -3.44494 ], [ 38.5321, -3.44537 ], [ 38.53384, -3.44581 ], [ 38.53673, -3.44653 ], [ 38.53876, -3.44451 ], [ 38.54052, -3.44248 ], [ 38.54064, -3.44233 ], [ 38.53673, -3.4406 ], [ 38.52095, -3.43654 ], [ 38.5111, -3.4335 ], [ 38.51188, -3.43303 ], [ 38.51135, -3.43223 ], [ 38.50548, -3.41568 ], [ 38.50217, -3.40635 ], [ 38.5008, -3.40486 ], [ 38.50051, -3.40454 ], [ 38.4812, -3.39394 ], [ 38.47472, -3.39038 ], [ 38.4706, -3.38812 ], [ 38.46981, -3.38769 ], [ 38.46951, -3.3758 ], [ 38.46755, -3.37565 ], [ 38.46491, -3.37367 ], [ 38.46454, -3.37339 ], [ 38.46048, -3.37535 ], [ 38.46033, -3.37538 ], [ 38.45807, -3.3758 ], [ 38.45687, -3.3746 ], [ 38.45446, -3.37174 ], [ 38.45323, -3.37156 ], [ 38.45344, -3.37118 ], [ 38.452, -3.36924 ], [ 38.45066, -3.36805 ], [ 38.44783, -3.36711 ], [ 38.44581, -3.36683 ], [ 38.44565, -3.36681 ], [ 38.4451, -3.36597 ], [ 38.44525, -3.36487 ], [ 38.4454, -3.36374 ], [ 38.4449, -3.36205 ], [ 38.44509, -3.36137 ], [ 38.4454, -3.36026 ], [ 38.44549, -3.35965 ], [ 38.44555, -3.35927 ], [ 38.44366, -3.35654 ], [ 38.44173, -3.35416 ], [ 38.43964, -3.35168 ], [ 38.43938, -3.35148 ], [ 38.43711, -3.34975 ], [ 38.43106, -3.34642 ], [ 38.42629, -3.34399 ], [ 38.4258, -3.34375 ], [ 38.42557, -3.34356 ], [ 38.42029, -3.33933 ], [ 38.41801, -3.33677 ], [ 38.41732, -3.33601 ], [ 38.41528, -3.33209 ], [ 38.4136, -3.32906 ], [ 38.41285, -3.32708 ], [ 38.41246, -3.32609 ], [ 38.4126, -3.3259 ], [ 38.41338, -3.32487 ], [ 38.41479, -3.32301 ], [ 38.41588, -3.32048 ], [ 38.41459, -3.31815 ], [ 38.4136, -3.31616 ], [ 38.41161, -3.31269 ], [ 38.40853, -3.3077 ], [ 38.40705, -3.3053 ], [ 38.40581, -3.30287 ], [ 38.40616, -3.29523 ], [ 38.40624, -3.29405 ], [ 38.4068, -3.2861 ], [ 38.40888, -3.27663 ], [ 38.40938, -3.27211 ], [ 38.41047, -3.26457 ], [ 38.41146, -3.26001 ], [ 38.41188, -3.25798 ], [ 38.4123, -3.25595 ], [ 38.41251, -3.25495 ], [ 38.41394, -3.25108 ], [ 38.41543, -3.24453 ], [ 38.41682, -3.23858 ], [ 38.41762, -3.2366 ], [ 38.4194, -3.23322 ], [ 38.42039, -3.22782 ], [ 38.42074, -3.22286 ], [ 38.42015, -3.21962 ], [ 38.42015, -3.21958 ], [ 38.42059, -3.21452 ], [ 38.42059, -3.2105 ], [ 38.42044, -3.20862 ], [ 38.42054, -3.20217 ], [ 38.42114, -3.19666 ], [ 38.42213, -3.19002 ], [ 38.42292, -3.18501 ], [ 38.42352, -3.18143 ], [ 38.42357, -3.1801 ], [ 38.42372, -3.17305 ], [ 38.42354, -3.16913 ], [ 38.44978, -3.16908 ], [ 38.45558, -3.16906 ], [ 38.49628, -3.16897 ], [ 38.49628, -3.16896 ], [ 38.49735, -3.14958 ], [ 38.49767, -3.14253 ], [ 38.49831, -3.12813 ], [ 38.49816, -3.12743 ], [ 38.49814, -3.12731 ], [ 38.49838, -3.12726 ], [ 38.49845, -3.12725 ], [ 38.49933, -3.11888 ], [ 38.49919, -3.11451 ], [ 38.49899, -3.10852 ], [ 38.49911, -3.10413 ], [ 38.49849, -3.09355 ], [ 38.49849, -3.09347 ], [ 38.49845, -3.09246 ], [ 38.49548, -3.08928 ], [ 38.49247, -3.08605 ], [ 38.4923, -3.08613 ], [ 38.49184, -3.08563 ], [ 38.49177, -3.08563 ], [ 38.48679, -3.05835 ], [ 38.48038, -3.02442 ], [ 38.47814, -3.0177 ], [ 38.46822, -3.00137 ], [ 38.46534, -2.99657 ], [ 38.46292, -2.99567 ], [ 38.46122, -2.99503 ], [ 38.46072, -2.99485 ], [ 38.4608, -2.9946 ], [ 38.46111, -2.99395 ], [ 38.4613, -2.99355 ], [ 38.4614, -2.99346 ], [ 38.46151, -2.99324 ], [ 38.46153, -2.99319 ], [ 38.46155, -2.99315 ], [ 38.4616, -2.99308 ], [ 38.46165, -2.99293 ], [ 38.46188, -2.99243 ], [ 38.46304, -2.99114 ], [ 38.46305, -2.99113 ], [ 38.46399, -2.99025 ], [ 38.46414, -2.99012 ], [ 38.46433, -2.99015 ], [ 38.46482, -2.99025 ], [ 38.46487, -2.99026 ], [ 38.4651, -2.99034 ], [ 38.46519, -2.99037 ], [ 38.46558, -2.99052 ], [ 38.4664, -2.9909 ], [ 38.46641, -2.9909 ], [ 38.4666, -2.991 ], [ 38.4677, -2.99052 ], [ 38.46812, -2.99026 ], [ 38.46859, -2.98997 ], [ 38.46855, -2.98951 ], [ 38.46852, -2.98915 ], [ 38.46845, -2.98902 ], [ 38.46845, -2.98893 ], [ 38.46832, -2.98875 ], [ 38.46831, -2.98874 ], [ 38.46831, -2.98831 ], [ 38.46831, -2.98826 ], [ 38.46831, -2.98773 ], [ 38.46833, -2.98771 ], [ 38.46913, -2.98744 ], [ 38.47016, -2.98737 ], [ 38.47017, -2.98737 ], [ 38.47093, -2.98734 ], [ 38.47108, -2.98741 ], [ 38.47108, -2.9874 ], [ 38.47116, -2.98733 ], [ 38.47121, -2.98733 ], [ 38.47139, -2.98726 ], [ 38.47152, -2.9872 ], [ 38.47158, -2.9872 ], [ 38.47191, -2.9873 ], [ 38.47216, -2.98737 ], [ 38.47248, -2.98741 ], [ 38.47274, -2.9875 ], [ 38.47315, -2.98774 ], [ 38.47334, -2.98804 ], [ 38.47344, -2.98807 ], [ 38.47346, -2.9881 ], [ 38.47354, -2.98819 ], [ 38.47386, -2.98821 ], [ 38.47428, -2.98822 ], [ 38.47451, -2.98823 ], [ 38.47575, -2.98807 ], [ 38.47579, -2.98807 ], [ 38.47606, -2.98805 ], [ 38.47744, -2.98809 ], [ 38.47841, -2.98769 ], [ 38.47853, -2.98757 ], [ 38.47877, -2.98735 ], [ 38.4792, -2.98694 ], [ 38.48024, -2.98597 ], [ 38.4811, -2.9854 ], [ 38.48226, -2.98507 ], [ 38.48264, -2.98497 ], [ 38.48286, -2.98492 ], [ 38.48298, -2.98489 ], [ 38.48383, -2.98468 ], [ 38.48458, -2.98386 ], [ 38.48526, -2.98307 ], [ 38.48572, -2.98264 ], [ 38.4861, -2.98246 ], [ 38.48709, -2.98199 ], [ 38.48798, -2.98131 ], [ 38.48856, -2.98077 ], [ 38.48881, -2.98042 ], [ 38.4892, -2.97999 ], [ 38.48958, -2.98006 ], [ 38.48978, -2.98009 ], [ 38.48999, -2.98056 ], [ 38.49003, -2.98064 ], [ 38.49003, -2.98065 ], [ 38.49011, -2.98098 ], [ 38.49057, -2.9819 ], [ 38.4908, -2.98238 ], [ 38.49123, -2.98304 ], [ 38.49174, -2.98411 ], [ 38.49188, -2.98439 ], [ 38.49202, -2.98469 ], [ 38.49237, -2.98531 ], [ 38.49272, -2.98567 ], [ 38.49275, -2.98572 ], [ 38.49291, -2.98588 ], [ 38.49329, -2.98626 ], [ 38.4933, -2.98626 ], [ 38.49338, -2.98634 ], [ 38.49366, -2.98631 ], [ 38.49371, -2.9863 ], [ 38.49397, -2.98633 ], [ 38.49426, -2.98621 ], [ 38.49475, -2.98602 ], [ 38.49517, -2.98594 ], [ 38.4952, -2.98593 ], [ 38.49531, -2.98592 ], [ 38.4963, -2.98579 ], [ 38.49755, -2.98568 ], [ 38.49942, -2.98551 ], [ 38.50107, -2.98545 ], [ 38.50134, -2.98848 ], [ 38.50354, -2.98854 ], [ 38.50653, -2.98824 ], [ 38.50977, -2.98897 ], [ 38.51196, -2.98897 ], [ 38.51318, -2.98677 ], [ 38.51366, -2.9854 ], [ 38.51446, -2.98537 ], [ 38.51458, -2.98536 ], [ 38.51519, -2.98486 ], [ 38.51519, -2.98404 ], [ 38.51517, -2.98396 ], [ 38.51538, -2.98378 ], [ 38.51715, -2.98244 ], [ 38.51855, -2.98098 ], [ 38.52014, -2.98018 ], [ 38.52234, -2.97994 ], [ 38.52435, -2.98006 ], [ 38.52673, -2.98067 ], [ 38.52978, -2.98146 ], [ 38.53156, -2.98085 ], [ 38.53314, -2.98018 ], [ 38.53497, -2.97976 ], [ 38.53674, -2.97945 ], [ 38.53918, -2.98055 ], [ 38.54095, -2.98177 ], [ 38.54193, -2.98305 ], [ 38.54315, -2.98446 ], [ 38.54517, -2.98507 ], [ 38.54675, -2.98525 ], [ 38.54974, -2.98647 ], [ 38.55194, -2.98787 ], [ 38.55377, -2.98897 ], [ 38.55518, -2.98976 ], [ 38.55933, -2.99184 ], [ 38.56213, -2.99208 ], [ 38.56458, -2.99227 ], [ 38.56793, -2.99245 ], [ 38.57013, -2.99257 ], [ 38.57214, -2.99276 ], [ 38.57434, -2.99288 ], [ 38.57697, -2.99288 ], [ 38.58093, -2.99306 ], [ 38.58258, -2.99349 ], [ 38.58478, -2.99477 ], [ 38.58716, -2.99715 ], [ 38.58838, -2.99874 ], [ 38.58954, -3.00026 ], [ 38.59137, -3.00246 ], [ 38.59277, -3.00337 ], [ 38.59436, -3.00405 ], [ 38.59613, -3.00447 ], [ 38.59857, -3.00417 ], [ 38.60175, -3.00374 ], [ 38.60333, -3.00325 ], [ 38.60639, -3.00179 ], [ 38.60858, -3.00075 ], [ 38.60935, -3.00093 ], [ 38.60896, -3.00274 ], [ 38.60833, -3.00413 ], [ 38.60796, -3.00493 ], [ 38.6076, -3.00597 ], [ 38.60769, -3.00628 ], [ 38.60718, -3.00704 ], [ 38.60693, -3.00868 ], [ 38.60834, -3.01119 ], [ 38.61035, -3.01216 ], [ 38.61237, -3.01265 ], [ 38.61493, -3.01326 ], [ 38.61633, -3.01393 ], [ 38.61817, -3.01454 ], [ 38.62134, -3.01528 ], [ 38.62433, -3.01515 ], [ 38.62598, -3.01564 ], [ 38.62757, -3.01625 ], [ 38.62915, -3.01705 ], [ 38.63239, -3.01705 ], [ 38.63416, -3.01674 ], [ 38.63776, -3.01656 ], [ 38.64014, -3.01686 ], [ 38.64215, -3.01717 ], [ 38.64398, -3.01845 ], [ 38.64456, -3.01883 ], [ 38.64594, -3.01973 ], [ 38.64734, -3.02083 ], [ 38.64874, -3.02278 ], [ 38.64954, -3.02419 ], [ 38.65094, -3.02608 ], [ 38.65216, -3.02785 ], [ 38.65314, -3.02907 ], [ 38.65515, -3.03053 ], [ 38.65717, -3.03145 ], [ 38.65937, -3.03255 ], [ 38.66095, -3.03444 ], [ 38.66193, -3.03706 ], [ 38.66254, -3.03895 ], [ 38.66297, -3.04115 ], [ 38.66437, -3.04384 ], [ 38.66895, -3.04243 ], [ 38.67078, -3.04225 ], [ 38.67755, -3.04133 ], [ 38.68036, -3.04115 ], [ 38.68274, -3.04115 ], [ 38.68634, -3.04072 ], [ 38.68958, -3.04024 ], [ 38.69275, -3.03993 ], [ 38.69617, -3.03963 ], [ 38.69959, -3.03865 ], [ 38.70154, -3.03828 ], [ 38.70295, -3.03773 ], [ 38.70557, -3.03676 ], [ 38.70856, -3.03737 ], [ 38.71076, -3.03786 ], [ 38.71296, -3.03883 ], [ 38.71534, -3.03956 ], [ 38.71698, -3.03993 ], [ 38.71875, -3.04048 ], [ 38.72077, -3.04097 ], [ 38.72297, -3.04146 ], [ 38.72553, -3.04225 ], [ 38.72693, -3.04317 ], [ 38.72895, -3.04445 ], [ 38.73096, -3.04597 ], [ 38.73217, -3.04661 ], [ 38.73316, -3.04713 ], [ 38.73475, -3.04805 ], [ 38.73694, -3.04884 ], [ 38.73896, -3.04884 ], [ 38.74054, -3.04902 ], [ 38.74299, -3.04945 ], [ 38.74659, -3.05018 ], [ 38.74933, -3.05055 ], [ 38.75257, -3.05116 ], [ 38.75434, -3.05128 ], [ 38.75678, -3.05134 ], [ 38.75873, -3.05128 ], [ 38.76075, -3.05067 ], [ 38.76435, -3.05018 ], [ 38.76593, -3.04988 ], [ 38.76899, -3.04976 ], [ 38.77393, -3.05037 ], [ 38.77735, -3.05165 ], [ 38.77997, -3.05293 ], [ 38.78296, -3.05366 ], [ 38.78577, -3.05385 ], [ 38.78815, -3.05403 ], [ 38.79096, -3.05415 ], [ 38.79255, -3.05427 ], [ 38.79474, -3.05476 ], [ 38.79676, -3.05525 ], [ 38.79896, -3.05568 ], [ 38.80079, -3.05635 ], [ 38.80274, -3.05665 ], [ 38.80475, -3.05708 ], [ 38.80713, -3.05726 ], [ 38.80854, -3.05763 ], [ 38.81037, -3.05964 ], [ 38.81014, -3.0602 ], [ 38.80984, -3.06066 ], [ 38.80934, -3.06138 ], [ 38.80873, -3.0619 ], [ 38.80855, -3.06206 ], [ 38.80812, -3.06221 ], [ 38.80769, -3.06195 ], [ 38.80725, -3.06168 ], [ 38.80625, -3.06106 ], [ 38.80457, -3.06031 ], [ 38.80353, -3.06038 ], [ 38.80102, -3.06056 ], [ 38.80081, -3.06071 ], [ 38.80016, -3.06117 ], [ 38.79948, -3.06188 ], [ 38.79898, -3.06242 ], [ 38.79877, -3.06396 ], [ 38.79798, -3.06446 ], [ 38.79816, -3.06623 ], [ 38.79859, -3.06843 ], [ 38.80018, -3.07057 ], [ 38.80335, -3.07215 ], [ 38.80536, -3.07264 ], [ 38.80836, -3.07313 ], [ 38.81238, -3.07258 ], [ 38.81434, -3.07228 ], [ 38.81855, -3.07124 ], [ 38.82075, -3.07014 ], [ 38.82337, -3.06886 ], [ 38.82538, -3.06733 ], [ 38.82795, -3.06544 ], [ 38.83314, -3.06514 ], [ 38.83619, -3.06416 ], [ 38.83777, -3.06233 ], [ 38.83893, -3.06086 ], [ 38.84034, -3.05903 ], [ 38.84278, -3.05885 ], [ 38.84455, -3.05934 ], [ 38.84694, -3.06179 ], [ 38.84697, -3.06191 ], [ 38.84698, -3.06192 ], [ 38.84722, -3.06224 ], [ 38.84754, -3.06398 ], [ 38.84937, -3.06495 ], [ 38.85395, -3.06495 ], [ 38.85657, -3.06453 ], [ 38.85895, -3.06398 ], [ 38.86195, -3.06324 ], [ 38.86494, -3.06196 ], [ 38.86756, -3.05977 ], [ 38.86976, -3.05855 ], [ 38.87116, -3.05726 ], [ 38.87574, -3.05433 ], [ 38.87696, -3.05336 ], [ 38.87916, -3.05214 ], [ 38.88178, -3.05043 ], [ 38.88697, -3.04756 ], [ 38.89014, -3.04536 ], [ 38.8924, -3.04418 ], [ 38.89259, -3.04408 ], [ 38.89436, -3.04335 ], [ 38.89698, -3.04298 ], [ 38.89954, -3.04323 ], [ 38.90235, -3.04463 ], [ 38.90455, -3.04585 ], [ 38.90778, -3.04713 ], [ 38.91035, -3.04793 ], [ 38.91315, -3.04866 ], [ 38.91737, -3.04902 ], [ 38.92115, -3.04854 ], [ 38.92316, -3.04756 ], [ 38.92536, -3.04664 ], [ 38.92799, -3.04616 ], [ 38.93018, -3.04616 ], [ 38.93238, -3.04603 ], [ 38.93354, -3.04475 ], [ 38.93494, -3.04304 ], [ 38.93574, -3.04176 ], [ 38.93757, -3.04054 ], [ 38.9398, -3.04081 ], [ 38.94257, -3.04115 ], [ 38.94538, -3.04207 ], [ 38.94733, -3.04268 ], [ 38.95039, -3.04378 ], [ 38.95399, -3.04445 ], [ 38.95673, -3.04506 ], [ 38.95735, -3.04503 ], [ 38.95979, -3.04494 ], [ 38.96174, -3.04506 ], [ 38.96375, -3.04548 ], [ 38.96876, -3.04597 ], [ 38.97199, -3.04573 ], [ 38.97498, -3.04567 ], [ 38.97798, -3.04536 ], [ 38.98115, -3.04463 ], [ 38.98274, -3.04365 ], [ 38.98438, -3.04188 ], [ 38.98579, -3.04036 ], [ 38.98737, -3.03816 ], [ 38.98914, -3.03493 ], [ 38.99116, -3.03145 ], [ 38.99378, -3.02986 ], [ 38.99616, -3.02913 ], [ 38.99775, -3.02907 ], [ 38.99977, -3.02925 ], [ 39.00154, -3.02895 ], [ 39.00459, -3.02986 ], [ 39.00617, -3.03017 ], [ 39.00776, -3.02986 ], [ 39.00978, -3.02986 ], [ 39.01179, -3.02968 ], [ 39.01319, -3.02913 ], [ 39.01618, -3.02858 ], [ 39.01777, -3.02815 ], [ 39.02015, -3.02754 ], [ 39.02314, -3.02553 ], [ 39.02595, -3.02504 ], [ 39.02839, -3.02547 ], [ 39.02955, -3.02638 ], [ 39.03334, -3.02803 ], [ 39.03517, -3.02815 ], [ 39.03694, -3.02779 ], [ 39.03783, -3.02746 ], [ 39.03889, -3.02731 ], [ 39.03935, -3.02724 ], [ 39.04059, -3.02651 ], [ 39.04125, -3.02613 ], [ 39.04298, -3.02565 ], [ 39.04396, -3.02736 ], [ 39.04396, -3.02943 ], [ 39.04377, -3.03133 ], [ 39.04414, -3.03395 ], [ 39.04579, -3.03578 ], [ 39.04859, -3.03664 ], [ 39.05055, -3.03645 ], [ 39.05317, -3.03755 ], [ 39.05519, -3.03914 ], [ 39.05635, -3.04097 ], [ 39.05799, -3.04286 ], [ 39.06019, -3.04494 ], [ 39.06337, -3.04555 ], [ 39.06471, -3.04389 ] ] ] } },
{ "type": "Feature", "properties": { "entity_id": 310, "p_entity": 40, "name": "Wundanyi Sub County" }, "geometry": { "type": "Polygon", "coordinates": [ [ [ 38.46072, -2.99485 ], [ 38.46122, -2.99503 ], [ 38.46292, -2.99567 ], [ 38.46534, -2.99657 ], [ 38.46822, -3.00137 ], [ 38.47814, -3.0177 ], [ 38.48038, -3.02442 ], [ 38.48679, -3.05835 ], [ 38.49177, -3.08563 ], [ 38.49184, -3.08563 ], [ 38.4923, -3.08613 ], [ 38.49247, -3.08605 ], [ 38.49548, -3.08928 ], [ 38.49845, -3.09246 ], [ 38.49849, -3.09347 ], [ 38.49849, -3.09355 ], [ 38.49911, -3.10413 ], [ 38.49899, -3.10852 ], [ 38.49919, -3.11451 ], [ 38.49933, -3.11888 ], [ 38.49845, -3.12725 ], [ 38.49838, -3.12726 ], [ 38.49814, -3.12731 ], [ 38.49816, -3.12743 ], [ 38.49831, -3.12813 ], [ 38.49767, -3.14253 ], [ 38.49735, -3.14958 ], [ 38.49628, -3.16896 ], [ 38.49628, -3.16897 ], [ 38.45558, -3.16906 ], [ 38.44978, -3.16908 ], [ 38.42354, -3.16913 ], [ 38.42372, -3.17305 ], [ 38.42357, -3.1801 ], [ 38.42352, -3.18143 ], [ 38.42292, -3.18501 ], [ 38.42213, -3.19002 ], [ 38.42114, -3.19666 ], [ 38.42054, -3.20217 ], [ 38.42044, -3.20862 ], [ 38.42059, -3.2105 ], [ 38.42059, -3.21452 ], [ 38.42015, -3.21958 ], [ 38.42015, -3.21962 ], [ 38.42074, -3.22286 ], [ 38.42039, -3.22782 ], [ 38.4194, -3.23322 ], [ 38.41762, -3.2366 ], [ 38.41682, -3.23858 ], [ 38.41543, -3.24453 ], [ 38.41394, -3.25108 ], [ 38.41251, -3.25495 ], [ 38.4123, -3.25595 ], [ 38.41188, -3.25798 ], [ 38.41146, -3.26001 ], [ 38.41047, -3.26457 ], [ 38.40938, -3.27211 ], [ 38.40888, -3.27663 ], [ 38.4068, -3.2861 ], [ 38.40624, -3.29405 ], [ 38.40616, -3.29523 ], [ 38.40581, -3.30287 ], [ 38.40705, -3.3053 ], [ 38.40853, -3.3077 ], [ 38.41161, -3.31269 ], [ 38.4136, -3.31616 ], [ 38.41459, -3.31815 ], [ 38.41588, -3.32048 ], [ 38.41479, -3.32301 ], [ 38.41338, -3.32487 ], [ 38.4126, -3.3259 ], [ 38.41153, -3.32627 ], [ 38.40958, -3.3273 ], [ 38.40512, -3.32916 ], [ 38.40353, -3.32992 ], [ 38.40279, -3.33027 ], [ 38.40121, -3.3312 ], [ 38.39991, -3.33297 ], [ 38.40048, -3.33554 ], [ 38.40065, -3.33632 ], [ 38.40084, -3.33948 ], [ 38.40111, -3.34012 ], [ 38.40149, -3.34097 ], [ 38.40093, -3.34367 ], [ 38.40037, -3.34693 ], [ 38.40036, -3.34709 ], [ 38.40009, -3.35139 ], [ 38.40056, -3.35641 ], [ 38.40062, -3.35681 ], [ 38.4009, -3.3585 ], [ 38.40112, -3.35976 ], [ 38.40177, -3.36358 ], [ 38.40344, -3.36655 ], [ 38.40381, -3.36851 ], [ 38.40484, -3.37213 ], [ 38.40479, -3.37221 ], [ 38.40362, -3.37404 ], [ 38.40335, -3.37446 ], [ 38.40391, -3.37651 ], [ 38.40893, -3.38199 ], [ 38.41209, -3.38478 ], [ 38.412, -3.38572 ], [ 38.41163, -3.38683 ], [ 38.41215, -3.3874 ], [ 38.41284, -3.38813 ], [ 38.4146, -3.39027 ], [ 38.41479, -3.39232 ], [ 38.41506, -3.39255 ], [ 38.41504, -3.39256 ], [ 38.41523, -3.3932 ], [ 38.41509, -3.39747 ], [ 38.41479, -3.40059 ], [ 38.41499, -3.40312 ], [ 38.41176, -3.40367 ], [ 38.40447, -3.40397 ], [ 38.39757, -3.40501 ], [ 38.39218, -3.40595 ], [ 38.39217, -3.40595 ], [ 38.39213, -3.40596 ], [ 38.39063, -3.40635 ], [ 38.39069, -3.40684 ], [ 38.39073, -3.40714 ], [ 38.39073, -3.40798 ], [ 38.39102, -3.40823 ], [ 38.39167, -3.40803 ], [ 38.39187, -3.40878 ], [ 38.39235, -3.41035 ], [ 38.39286, -3.412 ], [ 38.39301, -3.41483 ], [ 38.39385, -3.41686 ], [ 38.39453, -3.42014 ], [ 38.39489, -3.42192 ], [ 38.39586, -3.42497 ], [ 38.39498, -3.42478 ], [ 38.39321, -3.42423 ], [ 38.3906, -3.42376 ], [ 38.38697, -3.42385 ], [ 38.38649, -3.42369 ], [ 38.3826, -3.42237 ], [ 38.38195, -3.42215 ], [ 38.37953, -3.42134 ], [ 38.37811, -3.42101 ], [ 38.37674, -3.42069 ], [ 38.37469, -3.42125 ], [ 38.37409, -3.42141 ], [ 38.37398, -3.42143 ], [ 38.37107, -3.42218 ], [ 38.36974, -3.42218 ], [ 38.36911, -3.42218 ], [ 38.36604, -3.42218 ], [ 38.3653, -3.42216 ], [ 38.36457, -3.42215 ], [ 38.36445, -3.42214 ], [ 38.36441, -3.42214 ], [ 38.36186, -3.42209 ], [ 38.35879, -3.42209 ], [ 38.35816, -3.4221 ], [ 38.35562, -3.42218 ], [ 38.35342, -3.42218 ], [ 38.35326, -3.42218 ], [ 38.35218, -3.42218 ], [ 38.34984, -3.42234 ], [ 38.34948, -3.42237 ], [ 38.34713, -3.42146 ], [ 38.3466, -3.42125 ], [ 38.34381, -3.41948 ], [ 38.34184, -3.418 ], [ 38.3412, -3.41753 ], [ 38.33877, -3.4154 ], [ 38.33674, -3.41362 ], [ 38.33639, -3.4139 ], [ 38.33574, -3.41443 ], [ 38.33478, -3.4152 ], [ 38.33302, -3.41716 ], [ 38.33432, -3.41874 ], [ 38.33398, -3.41952 ], [ 38.33342, -3.4208 ], [ 38.33339, -3.42088 ], [ 38.33218, -3.42283 ], [ 38.33171, -3.42404 ], [ 38.33124, -3.42386 ], [ 38.33097, -3.42376 ], [ 38.3305, -3.42274 ], [ 38.32957, -3.42255 ], [ 38.32892, -3.42144 ], [ 38.32771, -3.42069 ], [ 38.32706, -3.42078 ], [ 38.32278, -3.42134 ], [ 38.3226, -3.42339 ], [ 38.3225, -3.42553 ], [ 38.32281, -3.42654 ], [ 38.32306, -3.42739 ], [ 38.32306, -3.42743 ], [ 38.32306, -3.42943 ], [ 38.32232, -3.43232 ], [ 38.32157, -3.43492 ], [ 38.32077, -3.43492 ], [ 38.32033, -3.43492 ], [ 38.32027, -3.43492 ], [ 38.31767, -3.43483 ], [ 38.31748, -3.43477 ], [ 38.31562, -3.43418 ], [ 38.31553, -3.43397 ], [ 38.31515, -3.43316 ], [ 38.31543, -3.4312 ], [ 38.31627, -3.42943 ], [ 38.31599, -3.4272 ], [ 38.3158, -3.42709 ], [ 38.31424, -3.42615 ], [ 38.31367, -3.42581 ], [ 38.31171, -3.42395 ], [ 38.3092, -3.42348 ], [ 38.30902, -3.4234 ], [ 38.308, -3.42292 ], [ 38.30603, -3.42198 ], [ 38.30567, -3.42181 ], [ 38.30204, -3.42116 ], [ 38.30055, -3.42134 ], [ 38.29785, -3.42069 ], [ 38.29459, -3.42041 ], [ 38.29115, -3.41911 ], [ 38.29032, -3.41771 ], [ 38.28955, -3.41672 ], [ 38.28873, -3.41567 ], [ 38.28687, -3.41557 ], [ 38.28561, -3.41607 ], [ 38.28473, -3.41641 ], [ 38.28415, -3.4166 ], [ 38.28331, -3.41687 ], [ 38.28191, -3.41732 ], [ 38.28185, -3.41734 ], [ 38.27822, -3.41744 ], [ 38.27463, -3.41852 ], [ 38.27422, -3.41864 ], [ 38.27124, -3.41915 ], [ 38.26929, -3.41948 ], [ 38.26844, -3.41946 ], [ 38.2665, -3.4194 ], [ 38.26324, -3.4193 ], [ 38.25963, -3.41892 ], [ 38.25524, -3.41846 ], [ 38.25247, -3.41782 ], [ 38.25078, -3.41744 ], [ 38.24668, -3.41734 ], [ 38.24596, -3.41745 ], [ 38.24352, -3.41781 ], [ 38.23822, -3.41818 ], [ 38.23626, -3.41678 ], [ 38.23133, -3.41204 ], [ 38.22947, -3.40869 ], [ 38.22789, -3.40534 ], [ 38.22753, -3.40284 ], [ 38.22743, -3.40209 ], [ 38.2265, -3.39837 ], [ 38.22557, -3.3953 ], [ 38.22557, -3.39204 ], [ 38.22436, -3.3899 ], [ 38.22465, -3.38909 ], [ 38.22519, -3.38758 ], [ 38.22532, -3.38673 ], [ 38.22592, -3.38272 ], [ 38.22673, -3.37927 ], [ 38.2292, -3.36874 ], [ 38.22972, -3.36652 ], [ 38.23219, -3.35594 ], [ 38.23551, -3.34171 ], [ 38.2415, -3.31357 ], [ 38.24111, -3.31342 ], [ 38.17946, -3.28976 ], [ 38.14477, -3.27712 ], [ 38.13439, -3.27267 ], [ 38.13402, -3.1698 ], [ 38.13349, -3.16946 ], [ 38.04614, -3.1652 ], [ 37.99545, -3.16273 ], [ 37.85458, -3.15586 ], [ 37.85458, -3.15374 ], [ 37.85459, -3.14767 ], [ 37.8546, -3.14541 ], [ 37.85483, -3.08497 ], [ 37.85484, -3.08348 ], [ 37.85484, -3.0821 ], [ 37.85486, -3.0821 ], [ 37.85592, -3.08211 ], [ 37.85613, -3.08181 ], [ 37.85664, -3.0816 ], [ 37.8572, -3.08139 ], [ 37.85766, -3.08109 ], [ 37.85805, -3.08096 ], [ 37.85885, -3.08096 ], [ 37.85966, -3.08126 ], [ 37.86021, -3.08147 ], [ 37.8611, -3.0816 ], [ 37.86174, -3.08156 ], [ 37.86234, -3.08151 ], [ 37.86285, -3.08147 ], [ 37.86344, -3.08147 ], [ 37.86399, -3.08134 ], [ 37.86497, -3.08134 ], [ 37.86531, -3.08143 ], [ 37.86561, -3.08151 ], [ 37.86607, -3.0816 ], [ 37.86654, -3.0816 ], [ 37.86718, -3.08151 ], [ 37.86798, -3.08139 ], [ 37.86875, -3.08117 ], [ 37.86951, -3.08117 ], [ 37.86998, -3.08105 ], [ 37.87036, -3.08105 ], [ 37.87087, -3.08079 ], [ 37.87121, -3.08067 ], [ 37.87142, -3.07911 ], [ 37.87581, -3.04208 ], [ 37.88103, -3.00262 ], [ 37.88167, -2.99775 ], [ 37.88358, -2.98323 ], [ 37.88448, -2.97635 ], [ 37.88545, -2.96894 ], [ 37.88638, -2.96186 ], [ 37.89006, -2.9338 ], [ 37.89058, -2.92948 ], [ 37.8943, -2.89872 ], [ 37.89562, -2.88778 ], [ 37.89565, -2.8875 ], [ 37.91274, -2.87501 ], [ 37.9186, -2.87072 ], [ 37.92046, -2.86194 ], [ 37.92149, -2.85708 ], [ 37.92569, -2.83732 ], [ 37.93687, -2.7819 ], [ 37.93859, -2.77368 ], [ 37.95401, -2.78053 ], [ 37.97469, -2.78967 ], [ 37.97468, -2.78957 ], [ 37.97524, -2.78982 ], [ 37.98068, -2.78696 ], [ 37.99883, -2.77698 ], [ 38.02734, -2.76156 ], [ 38.03375, -2.7581 ], [ 38.03562, -2.75711 ], [ 38.03596, -2.75674 ], [ 38.04006, -2.75429 ], [ 38.04237, -2.75331 ], [ 38.04318, -2.7529 ], [ 38.0454, -2.75179 ], [ 38.04708, -2.75095 ], [ 38.04879, -2.7501 ], [ 38.05021, -2.74939 ], [ 38.0509, -2.74903 ], [ 38.05177, -2.7485 ], [ 38.05231, -2.74828 ], [ 38.05311, -2.7478 ], [ 38.05329, -2.7477 ], [ 38.05353, -2.74755 ], [ 38.05454, -2.74716 ], [ 38.05499, -2.74692 ], [ 38.05505, -2.74689 ], [ 38.05515, -2.74684 ], [ 38.05519, -2.74682 ], [ 38.05606, -2.74637 ], [ 38.05616, -2.74629 ], [ 38.05722, -2.74576 ], [ 38.05745, -2.74564 ], [ 38.05788, -2.74542 ], [ 38.05806, -2.74534 ], [ 38.05945, -2.74462 ], [ 38.05956, -2.74455 ], [ 38.05995, -2.74436 ], [ 38.06015, -2.74426 ], [ 38.06105, -2.7438 ], [ 38.06167, -2.74342 ], [ 38.06244, -2.74307 ], [ 38.06302, -2.74269 ], [ 38.06403, -2.74221 ], [ 38.06477, -2.74178 ], [ 38.06486, -2.74173 ], [ 38.06551, -2.74141 ], [ 38.06658, -2.74089 ], [ 38.06724, -2.74045 ], [ 38.06804, -2.74013 ], [ 38.06858, -2.73991 ], [ 38.06913, -2.73963 ], [ 38.06952, -2.73941 ], [ 38.07035, -2.73894 ], [ 38.07077, -2.7387 ], [ 38.07201, -2.738 ], [ 38.07239, -2.73789 ], [ 38.07333, -2.73728 ], [ 38.07371, -2.73711 ], [ 38.07435, -2.73682 ], [ 38.07499, -2.73653 ], [ 38.0754, -2.73629 ], [ 38.07597, -2.73595 ], [ 38.07651, -2.73563 ], [ 38.07775, -2.73505 ], [ 38.07797, -2.73495 ], [ 38.07954, -2.73411 ], [ 38.07991, -2.7339 ], [ 38.0814, -2.73303 ], [ 38.08288, -2.73233 ], [ 38.08299, -2.73228 ], [ 38.08469, -2.73131 ], [ 38.08627, -2.73042 ], [ 38.08772, -2.7296 ], [ 38.0894, -2.72884 ], [ 38.0911, -2.72796 ], [ 38.09259, -2.7272 ], [ 38.09571, -2.72546 ], [ 38.09909, -2.72358 ], [ 38.0995, -2.72306 ], [ 38.09992, -2.72311 ], [ 38.10031, -2.7229 ], [ 38.10065, -2.72281 ], [ 38.10107, -2.7227 ], [ 38.10159, -2.72191 ], [ 38.10187, -2.72097 ], [ 38.10273, -2.7206 ], [ 38.10335, -2.7204 ], [ 38.10412, -2.72011 ], [ 38.10429, -2.71971 ], [ 38.10486, -2.71983 ], [ 38.10519, -2.71983 ], [ 38.10524, -2.71981 ], [ 38.10541, -2.71981 ], [ 38.10592, -2.71979 ], [ 38.1064, -2.71966 ], [ 38.1071, -2.7195 ], [ 38.10737, -2.71923 ], [ 38.10807, -2.71918 ], [ 38.10902, -2.71887 ], [ 38.10955, -2.71854 ], [ 38.10955, -2.71854 ], [ 38.11018, -2.71799 ], [ 38.11109, -2.71761 ], [ 38.11223, -2.71696 ], [ 38.11304, -2.71642 ], [ 38.11309, -2.71583 ], [ 38.1139, -2.71534 ], [ 38.11482, -2.71524 ], [ 38.11544, -2.71514 ], [ 38.11544, -2.71514 ], [ 38.1156, -2.71511 ], [ 38.11561, -2.71511 ], [ 38.1157, -2.7151 ], [ 38.11617, -2.71502 ], [ 38.1173, -2.71399 ], [ 38.11779, -2.71302 ], [ 38.11779, -2.71227 ], [ 38.11779, -2.71211 ], [ 38.11757, -2.71119 ], [ 38.11806, -2.70919 ], [ 38.11841, -2.70858 ], [ 38.11892, -2.70768 ], [ 38.11968, -2.70703 ], [ 38.12076, -2.7066 ], [ 38.12135, -2.70644 ], [ 38.12155, -2.70652 ], [ 38.12181, -2.70651 ], [ 38.12206, -2.70658 ], [ 38.12234, -2.7068 ], [ 38.12265, -2.7069 ], [ 38.12276, -2.70694 ], [ 38.12289, -2.70694 ], [ 38.12319, -2.70687 ], [ 38.1234, -2.70628 ], [ 38.12416, -2.70628 ], [ 38.1241, -2.70568 ], [ 38.12416, -2.70476 ], [ 38.12518, -2.70358 ], [ 38.12653, -2.70239 ], [ 38.12842, -2.70142 ], [ 38.12907, -2.70098 ], [ 38.12977, -2.7005 ], [ 38.13058, -2.70028 ], [ 38.13188, -2.70012 ], [ 38.132, -2.70011 ], [ 38.13263, -2.70007 ], [ 38.13366, -2.7005 ], [ 38.13442, -2.70055 ], [ 38.13479, -2.70023 ], [ 38.13528, -2.69996 ], [ 38.13636, -2.70034 ], [ 38.13728, -2.70082 ], [ 38.13787, -2.70077 ], [ 38.13868, -2.70077 ], [ 38.13998, -2.70082 ], [ 38.14149, -2.70055 ], [ 38.14257, -2.70045 ], [ 38.14322, -2.70018 ], [ 38.1443, -2.70055 ], [ 38.1449, -2.70075 ], [ 38.14513, -2.70074 ], [ 38.14559, -2.7009 ], [ 38.1461, -2.70106 ], [ 38.14613, -2.70107 ], [ 38.14644, -2.70111 ], [ 38.1469, -2.70124 ], [ 38.14761, -2.70124 ], [ 38.14798, -2.70131 ], [ 38.14807, -2.70131 ], [ 38.14932, -2.70126 ], [ 38.14967, -2.70126 ], [ 38.1498, -2.70126 ], [ 38.14993, -2.70121 ], [ 38.15012, -2.70115 ], [ 38.15045, -2.70093 ], [ 38.15062, -2.70101 ], [ 38.15089, -2.70101 ], [ 38.15114, -2.70117 ], [ 38.15116, -2.70123 ], [ 38.15128, -2.70149 ], [ 38.15136, -2.70168 ], [ 38.1518, -2.70142 ], [ 38.15266, -2.70093 ], [ 38.15391, -2.70061 ], [ 38.15428, -2.70028 ], [ 38.15471, -2.69893 ], [ 38.15481, -2.69881 ], [ 38.15495, -2.69855 ], [ 38.15499, -2.69848 ], [ 38.15512, -2.69842 ], [ 38.15516, -2.69836 ], [ 38.15526, -2.69824 ], [ 38.15547, -2.69796 ], [ 38.15592, -2.69792 ], [ 38.1561, -2.69785 ], [ 38.15614, -2.69784 ], [ 38.1567, -2.69783 ], [ 38.1571, -2.69774 ], [ 38.15758, -2.69726 ], [ 38.15798, -2.69685 ], [ 38.15804, -2.69677 ], [ 38.15815, -2.69659 ], [ 38.15825, -2.69642 ], [ 38.15839, -2.6963 ], [ 38.15839, -2.69559 ], [ 38.15796, -2.69491 ], [ 38.15785, -2.69472 ], [ 38.1579, -2.6944 ], [ 38.15795, -2.69413 ], [ 38.15876, -2.69343 ], [ 38.15871, -2.69256 ], [ 38.15844, -2.69202 ], [ 38.15795, -2.69143 ], [ 38.15795, -2.69134 ], [ 38.15795, -2.69067 ], [ 38.15844, -2.68997 ], [ 38.15925, -2.6896 ], [ 38.15957, -2.689 ], [ 38.15973, -2.68819 ], [ 38.15974, -2.68814 ], [ 38.16025, -2.68691 ], [ 38.16028, -2.68684 ], [ 38.16028, -2.68603 ], [ 38.16011, -2.68522 ], [ 38.16034, -2.68496 ], [ 38.16052, -2.68474 ], [ 38.16065, -2.68458 ], [ 38.16103, -2.68393 ], [ 38.16109, -2.6837 ], [ 38.16119, -2.68328 ], [ 38.1612, -2.68327 ], [ 38.16168, -2.68247 ], [ 38.16182, -2.68228 ], [ 38.16206, -2.68193 ], [ 38.16281, -2.68171 ], [ 38.16297, -2.68231 ], [ 38.16334, -2.68672 ], [ 38.16355, -2.68925 ], [ 38.16358, -2.68963 ], [ 38.16384, -2.69282 ], [ 38.16391, -2.69364 ], [ 38.16399, -2.69374 ], [ 38.16437, -2.69408 ], [ 38.1644, -2.69413 ], [ 38.16456, -2.69434 ], [ 38.16457, -2.69435 ], [ 38.165, -2.69479 ], [ 38.16531, -2.69506 ], [ 38.16547, -2.69524 ], [ 38.16553, -2.69535 ], [ 38.1656, -2.69545 ], [ 38.16751, -2.69548 ], [ 38.1676, -2.69566 ], [ 38.16773, -2.69591 ], [ 38.16854, -2.69731 ], [ 38.16978, -2.69812 ], [ 38.16991, -2.69819 ], [ 38.17339, -2.6998 ], [ 38.17826, -2.70239 ], [ 38.1809, -2.70379 ], [ 38.1826, -2.70453 ], [ 38.18489, -2.70552 ], [ 38.18696, -2.70701 ], [ 38.18743, -2.70735 ], [ 38.19316, -2.71149 ], [ 38.19445, -2.71243 ], [ 38.20021, -2.71656 ], [ 38.20116, -2.71725 ], [ 38.20127, -2.71733 ], [ 38.20131, -2.71735 ], [ 38.20287, -2.71848 ], [ 38.20317, -2.71869 ], [ 38.2038, -2.71913 ], [ 38.20384, -2.71917 ], [ 38.2039, -2.7192 ], [ 38.20769, -2.72188 ], [ 38.21147, -2.72455 ], [ 38.21148, -2.72455 ], [ 38.21207, -2.72499 ], [ 38.21278, -2.72552 ], [ 38.21436, -2.7267 ], [ 38.21503, -2.72713 ], [ 38.21574, -2.72766 ], [ 38.2166, -2.7283 ], [ 38.21716, -2.72872 ], [ 38.21815, -2.72937 ], [ 38.21862, -2.72975 ], [ 38.22, -2.73071 ], [ 38.22031, -2.73092 ], [ 38.22171, -2.73194 ], [ 38.22361, -2.73331 ], [ 38.2245, -2.73398 ], [ 38.22883, -2.73707 ], [ 38.22958, -2.73761 ], [ 38.23184, -2.73922 ], [ 38.23321, -2.7402 ], [ 38.23552, -2.74196 ], [ 38.23888, -2.7444 ], [ 38.24128, -2.74598 ], [ 38.24171, -2.74627 ], [ 38.24433, -2.74835 ], [ 38.24618, -2.7495 ], [ 38.24983, -2.75217 ], [ 38.25013, -2.75248 ], [ 38.25119, -2.75357 ], [ 38.25119, -2.75486 ], [ 38.25193, -2.75539 ], [ 38.2534, -2.75644 ], [ 38.25353, -2.75656 ], [ 38.25505, -2.75764 ], [ 38.25638, -2.75866 ], [ 38.25768, -2.75957 ], [ 38.25883, -2.76042 ], [ 38.25984, -2.7616 ], [ 38.26054, -2.76242 ], [ 38.26094, -2.76294 ], [ 38.2612, -2.76318 ], [ 38.26174, -2.76381 ], [ 38.26204, -2.76416 ], [ 38.26218, -2.76443 ], [ 38.26244, -2.76462 ], [ 38.26326, -2.76558 ], [ 38.2641, -2.76656 ], [ 38.26413, -2.7666 ], [ 38.26431, -2.7668 ], [ 38.26498, -2.76759 ], [ 38.26555, -2.76824 ], [ 38.26672, -2.76967 ], [ 38.26725, -2.77027 ], [ 38.26944, -2.77294 ], [ 38.27009, -2.77373 ], [ 38.27131, -2.77519 ], [ 38.27148, -2.7754 ], [ 38.27297, -2.77725 ], [ 38.27338, -2.77767 ], [ 38.27565, -2.78039 ], [ 38.27754, -2.78269 ], [ 38.2801, -2.7858 ], [ 38.28065, -2.78657 ], [ 38.28162, -2.78794 ], [ 38.28166, -2.788 ], [ 38.28468, -2.79258 ], [ 38.28632, -2.79507 ], [ 38.28694, -2.79606 ], [ 38.28749, -2.79684 ], [ 38.28828, -2.79804 ], [ 38.28871, -2.79869 ], [ 38.28951, -2.79987 ], [ 38.2896, -2.80003 ], [ 38.28971, -2.80017 ], [ 38.29026, -2.80098 ], [ 38.29139, -2.80265 ], [ 38.29189, -2.80342 ], [ 38.29322, -2.80538 ], [ 38.29413, -2.80672 ], [ 38.29505, -2.80808 ], [ 38.29601, -2.80949 ], [ 38.29648, -2.81018 ], [ 38.29681, -2.81067 ], [ 38.29883, -2.81368 ], [ 38.29902, -2.81397 ], [ 38.29931, -2.81435 ], [ 38.30006, -2.81546 ], [ 38.30099, -2.81683 ], [ 38.30196, -2.81805 ], [ 38.302, -2.81809 ], [ 38.30255, -2.81867 ], [ 38.30291, -2.81915 ], [ 38.30321, -2.81943 ], [ 38.30346, -2.81966 ], [ 38.30456, -2.82093 ], [ 38.30576, -2.82199 ], [ 38.3066, -2.82281 ], [ 38.3072, -2.82331 ], [ 38.30901, -2.82503 ], [ 38.30951, -2.82551 ], [ 38.31032, -2.82619 ], [ 38.31042, -2.82627 ], [ 38.31139, -2.82716 ], [ 38.31179, -2.82753 ], [ 38.31198, -2.82768 ], [ 38.31363, -2.82924 ], [ 38.31458, -2.83014 ], [ 38.31517, -2.83077 ], [ 38.3164, -2.83197 ], [ 38.31738, -2.83306 ], [ 38.31819, -2.83417 ], [ 38.31898, -2.83524 ], [ 38.31961, -2.8361 ], [ 38.32021, -2.83706 ], [ 38.32041, -2.8374 ], [ 38.32105, -2.83852 ], [ 38.3219, -2.83983 ], [ 38.32252, -2.84078 ], [ 38.32388, -2.84301 ], [ 38.32407, -2.84333 ], [ 38.3244, -2.84399 ], [ 38.32543, -2.8456 ], [ 38.32558, -2.84582 ], [ 38.32558, -2.84582 ], [ 38.32632, -2.847 ], [ 38.32647, -2.84725 ], [ 38.32684, -2.84799 ], [ 38.32692, -2.8481 ], [ 38.32778, -2.84939 ], [ 38.32873, -2.85117 ], [ 38.32976, -2.85308 ], [ 38.33096, -2.85512 ], [ 38.33144, -2.85586 ], [ 38.3346, -2.86102 ], [ 38.33617, -2.86358 ], [ 38.33707, -2.86498 ], [ 38.33805, -2.86669 ], [ 38.33918, -2.86838 ], [ 38.33995, -2.86954 ], [ 38.34067, -2.87046 ], [ 38.34136, -2.87136 ], [ 38.34229, -2.87272 ], [ 38.34283, -2.8735 ], [ 38.34406, -2.87529 ], [ 38.34497, -2.87662 ], [ 38.34502, -2.87669 ], [ 38.34769, -2.88058 ], [ 38.34828, -2.88142 ], [ 38.34847, -2.88171 ], [ 38.35111, -2.88538 ], [ 38.35224, -2.887 ], [ 38.35319, -2.88835 ], [ 38.3538, -2.88914 ], [ 38.35417, -2.88965 ], [ 38.35479, -2.89052 ], [ 38.35517, -2.89107 ], [ 38.35537, -2.89133 ], [ 38.3561, -2.89235 ], [ 38.35747, -2.89425 ], [ 38.35765, -2.89451 ], [ 38.35774, -2.89463 ], [ 38.35794, -2.89495 ], [ 38.35863, -2.89593 ], [ 38.35913, -2.89655 ], [ 38.35946, -2.89696 ], [ 38.3603, -2.8981 ], [ 38.36067, -2.89859 ], [ 38.36206, -2.90056 ], [ 38.36234, -2.90085 ], [ 38.36251, -2.90109 ], [ 38.36264, -2.90122 ], [ 38.36307, -2.90164 ], [ 38.36357, -2.90217 ], [ 38.36377, -2.90231 ], [ 38.36476, -2.90328 ], [ 38.36602, -2.9045 ], [ 38.36713, -2.90569 ], [ 38.36825, -2.90671 ], [ 38.36898, -2.90737 ], [ 38.36987, -2.90823 ], [ 38.3699, -2.90826 ], [ 38.37065, -2.90904 ], [ 38.37292, -2.9112 ], [ 38.3753, -2.91345 ], [ 38.37558, -2.91371 ], [ 38.37589, -2.91401 ], [ 38.37642, -2.91452 ], [ 38.37653, -2.91464 ], [ 38.37852, -2.91685 ], [ 38.38092, -2.91898 ], [ 38.38325, -2.92127 ], [ 38.38427, -2.92227 ], [ 38.38474, -2.92274 ], [ 38.38537, -2.92336 ], [ 38.38618, -2.92403 ], [ 38.38729, -2.92501 ], [ 38.38813, -2.92557 ], [ 38.38853, -2.92583 ], [ 38.38951, -2.92662 ], [ 38.39091, -2.92758 ], [ 38.39175, -2.92809 ], [ 38.39264, -2.92873 ], [ 38.39293, -2.92886 ], [ 38.39349, -2.92909 ], [ 38.39474, -2.92968 ], [ 38.39604, -2.93001 ], [ 38.39733, -2.93015 ], [ 38.3976, -2.93015 ], [ 38.39778, -2.93017 ], [ 38.39798, -2.93019 ], [ 38.3983, -2.93017 ], [ 38.39862, -2.93018 ], [ 38.39953, -2.9302 ], [ 38.40027, -2.93011 ], [ 38.401, -2.93002 ], [ 38.40233, -2.92948 ], [ 38.40233, -2.92948 ], [ 38.40318, -2.92921 ], [ 38.40399, -2.92896 ], [ 38.4055, -2.92885 ], [ 38.40646, -2.92892 ], [ 38.40694, -2.929 ], [ 38.40728, -2.92916 ], [ 38.40818, -2.92959 ], [ 38.40908, -2.93018 ], [ 38.40979, -2.93081 ], [ 38.41059, -2.93191 ], [ 38.41138, -2.93278 ], [ 38.4117, -2.93323 ], [ 38.41196, -2.93358 ], [ 38.41213, -2.93384 ], [ 38.41266, -2.93457 ], [ 38.41392, -2.93637 ], [ 38.41626, -2.93972 ], [ 38.41632, -2.93982 ], [ 38.41674, -2.94057 ], [ 38.41697, -2.94082 ], [ 38.41719, -2.94119 ], [ 38.41719, -2.94119 ], [ 38.41723, -2.94126 ], [ 38.41781, -2.94235 ], [ 38.4182, -2.94292 ], [ 38.41954, -2.94521 ], [ 38.42001, -2.946 ], [ 38.42109, -2.94757 ], [ 38.42333, -2.95019 ], [ 38.42433, -2.95135 ], [ 38.42437, -2.9514 ], [ 38.42805, -2.95583 ], [ 38.42882, -2.9567 ], [ 38.43037, -2.95847 ], [ 38.43156, -2.95993 ], [ 38.4328, -2.96112 ], [ 38.43404, -2.96209 ], [ 38.43561, -2.96312 ], [ 38.43674, -2.96381 ], [ 38.43755, -2.9643 ], [ 38.43919, -2.96572 ], [ 38.43921, -2.96574 ], [ 38.44043, -2.96684 ], [ 38.44169, -2.96815 ], [ 38.44282, -2.96907 ], [ 38.44328, -2.9695 ], [ 38.44406, -2.97022 ], [ 38.44438, -2.97052 ], [ 38.44497, -2.97106 ], [ 38.44511, -2.97121 ], [ 38.44708, -2.97322 ], [ 38.44797, -2.97413 ], [ 38.44846, -2.97465 ], [ 38.44855, -2.97478 ], [ 38.44954, -2.97596 ], [ 38.44996, -2.9767 ], [ 38.45002, -2.97683 ], [ 38.45025, -2.97731 ], [ 38.45076, -2.97842 ], [ 38.45084, -2.97859 ], [ 38.45094, -2.97881 ], [ 38.45112, -2.9792 ], [ 38.4524, -2.98196 ], [ 38.45293, -2.98305 ], [ 38.45293, -2.98306 ], [ 38.45359, -2.98461 ], [ 38.4544, -2.98616 ], [ 38.45465, -2.98667 ], [ 38.45515, -2.98772 ], [ 38.4558, -2.98907 ], [ 38.45622, -2.99025 ], [ 38.45648, -2.99099 ], [ 38.45705, -2.99197 ], [ 38.45744, -2.99263 ], [ 38.45756, -2.99278 ], [ 38.45792, -2.99322 ], [ 38.45795, -2.99328 ], [ 38.45796, -2.99329 ], [ 38.45796, -2.99329 ], [ 38.45801, -2.99333 ], [ 38.45803, -2.99335 ], [ 38.45826, -2.99353 ], [ 38.45905, -2.99415 ], [ 38.45981, -2.99475 ], [ 38.46058, -2.99525 ], [ 38.46072, -2.99485 ] ] ] } }
]
}
